asset_id,asset_type_code,name,func_loc_path,active,latitude,longitude,address,barcode,serial_number,district_code,municipality_code,town_code,suburb_code,facility_type_code,responsible_dept_code,is_owned,EMIS
c9bc4112-a6a4-4721-9b7d-29da0f8ec14b,ENVELOPE,KLAWERVLEI PS,WCEDL000098,TRUE,-32.116843,22.412337,"Klawervlei, Beaufort-Wes,6970",NULL,NULL,CENTRALKAR,BEAUFORTWE,BEAUFORTWT,WCP_157,NULL,WCED,TRUE,139366129
467ca297-be78-4267-9c57-84084b71d96e,FACILITY,KLAWERVLEI PS,WCEDL000098.WCEDL000098,TRUE,-32.116843,22.412337,"Klawervlei, Beaufort-Wes,6970",NULL,NULL,CENTRALKAR,BEAUFORTWE,BEAUFORTWT,WCP_157,SCHP,NULL,NULL,NULL
988e540b-a978-4f0d-b261-96927874b36a,ENVELOPE,LAYTON NGK PRIMERE SKOOL,WCEDL000244,TRUE,-32.2605,21.9305,Welgemoed,NULL,NULL,CENTRALKAR,BEAUFORTWE,BEAUFORTWT,WCP_157,NULL,NULL,NULL,NULL
4bf0e598-3146-4b33-874b-74c4ec503410,FACILITY,LAYTON NGK PRIMERE SKOOL,WCEDL000244.WCEDL000244,TRUE,-32.2605,21.9305,Welgemoed,NULL,NULL,CENTRALKAR,BEAUFORTWE,BEAUFORTWT,WCP_157,SCHP,NULL,NULL,NULL
0840096a-35de-4288-b05e-c07a778fa1bf,ENVELOPE,BAARTMANSFONTEIN NGK PS,WCEDL000009,TRUE,-33.37283,21.12183,"BAARTMANSFONTEIN, LAINGSBURG,6900",NULL,NULL,CENTRALKAR,LAINGSBURG,MATJIESFTN,WCP_202,NULL,WCED,TRUE,140337331
3047577f-dcb4-458d-80cc-831b9ecb6e9a,FACILITY,BAARTMANSFONTEIN NGK PS,WCEDL000009.WCEDL000009,TRUE,-33.37283,21.12183,"BAARTMANSFONTEIN, LAINGSBURG,6900",NULL,NULL,CENTRALKAR,LAINGSBURG,MATJIESFTN,WCP_202,SCHP,NULL,NULL,NULL
d4319501-6981-4246-9fce-06eb6a824362,ENVELOPE,LATEGANSVLEI SSKV PS,WCEDL000114,TRUE,-33.525283,22.033461,"LATEGANSVLEI, DISTRIK-OUDTSHOORN,6620",NULL,NULL,EDEN,OUDTSHOORN,ARMOEDD,WCP_355,NULL,WCED,TRUE,124358665
3a5b794b-f68e-4b8b-839f-d1607c445682,FACILITY,LATEGANSVLEI SSKV PS,WCEDL000114.WCEDL000114,TRUE,-33.525283,22.033461,"LATEGANSVLEI, DISTRIK-OUDTSHOORN,6620",NULL,NULL,EDEN,OUDTSHOORN,ARMOEDD,WCP_355,SCHP,NULL,NULL,NULL
f24e869e-208e-4234-8a5c-cc30c76dbfa1,ENVELOPE,MOOI UITSIG PS NO.2,WCEDL000141,TRUE,-33.788542,22.029871,"Plaas 2, Paardebont Afrit, MOSSELBAAI PAD,",NULL,NULL,EDEN,OUDTSHOORN,ARMOEDD,WCP_355,NULL,WCED,TRUE,124350680
2b6960a8-e468-4568-8c47-9662f039cfe6,FACILITY,MOOI UITSIG PS NO.2,WCEDL000141.WCEDL000141,TRUE,-33.788542,22.029871,"Plaas 2, Paardebont Afrit, MOSSELBAAI PAD,",NULL,NULL,EDEN,OUDTSHOORN,ARMOEDD,WCP_355,SCHP,NULL,NULL,NULL
c486d13c-ed29-4164-82b3-0cc1a32be4d4,ENVELOPE,ROOIBERG SSKV PS,WCEDL000173,TRUE,-33.613603,22.060692,"Wynandsrivier, Oudtshoorn,6620",NULL,NULL,EDEN,OUDTSHOORN,ARMOEDD,WCP_355,NULL,WCED,TRUE,124356204
db7b08ee-df3b-45de-8b5d-2a2ee7515d47,FACILITY,ROOIBERG SSKV PS,WCEDL000173.WCEDL000173,TRUE,-33.613603,22.060692,"Wynandsrivier, Oudtshoorn,6620",NULL,NULL,EDEN,OUDTSHOORN,ARMOEDD,WCP_355,SCHP,NULL,NULL,NULL
f5243a04-6da0-4dcc-8753-5c0ec09c1f6f,ENVELOPE,DE JAGER VGK PS,WCEDL000042,TRUE,-33.54664,22.245483,"P/A Piet En Laura Schoeman, Buffelsdift, OUDTSHOORN,6620",NULL,NULL,EDEN,OUDTSHOORN,DYSSELSDOP,WCP_208,NULL,WCED,TRUE,124358118
d3ca9f12-44f4-4340-8182-ba3877d4bed5,FACILITY,DE JAGER VGK PS,WCEDL000042.WCEDL000042,TRUE,-33.54664,22.245483,"P/A Piet En Laura Schoeman, Buffelsdift, OUDTSHOORN,6620",NULL,NULL,EDEN,OUDTSHOORN,DYSSELSDOP,WCP_208,SCHP,NULL,NULL,NULL
581c273f-8d27-4a3a-973f-826729a666b0,ENVELOPE,GROOTKRAAL UCC PS,WCEDL000078,TRUE,-33.400649,22.213293,"Grootkraal, Pad Oor Kango Grotte, OUDTSHOORN,6625",NULL,NULL,EDEN,OUDTSHOORN,DYSSELSDOP,WCP_208,NULL,WCED,TRUE,124356182
55d70185-6361-4e8b-a98d-6b0202d41d95,FACILITY,GROOTKRAAL UCC PS,WCEDL000078.WCEDL000078,TRUE,-33.400649,22.213293,"Grootkraal, Pad Oor Kango Grotte, OUDTSHOORN,6625",NULL,NULL,EDEN,OUDTSHOORN,DYSSELSDOP,WCP_208,SCHP,NULL,NULL,NULL
28799d55-044a-4971-9bd3-0c2febedcc94,ENVELOPE,RODEWAL UCC PS,WCEDL000172,TRUE,-33.481534,22.246711,"Ucc Kerkgronde, Schoemanshoek,6620",NULL,NULL,EDEN,OUDTSHOORN,DYSSELSDOP,WCP_208,NULL,WCED,TRUE,124358258
ddc6e1a4-9121-4bd3-a721-ebde6385edc4,FACILITY,RODEWAL UCC PS,WCEDL000172.WCEDL000172,TRUE,-33.481534,22.246711,"Ucc Kerkgronde, Schoemanshoek,6620",NULL,NULL,EDEN,OUDTSHOORN,DYSSELSDOP,WCP_208,SCHP,NULL,NULL,NULL
b413fe71-7e3d-4f91-bf3e-5f8cf6aee3be,ENVELOPE,VLAKTEPLAAS UCC PS,WCEDL000216,TRUE,-33.495533,22.701856,"Vlakteplaas, De Rust,6650",NULL,NULL,EDEN,OUDTSHOORN,DYSSELSDOP,WCP_208,NULL,WCED,TRUE,124356239
7a3ad9c7-212c-4e76-a2e6-e50722639eb1,FACILITY,VLAKTEPLAAS UCC PS,WCEDL000216.WCEDL000216,TRUE,-33.495533,22.701856,"Vlakteplaas, De Rust,6650",NULL,NULL,EDEN,OUDTSHOORN,DYSSELSDOP,WCP_208,SCHP,NULL,NULL,NULL
448c098f-4823-46a7-99ef-ebfae2be2e34,ENVELOPE,KLIPDRIFT EK PS,WCEDL000101,TRUE,-33.775042,22.311581,"Klipdrift, George,6530",NULL,NULL,EDEN,OUDTSHOORN,OUDTSHOORN,WCP_71,NULL,WCED,TRUE,118356409
e4b574ed-05cf-4525-aac1-73f7ba4c2793,FACILITY,KLIPDRIFT EK PS,WCEDL000101.WCEDL000101,TRUE,-33.775042,22.311581,"Klipdrift, George,6530",NULL,NULL,EDEN,OUDTSHOORN,OUDTSHOORN,WCP_71,SCHP,NULL,NULL,NULL
8da6cbaf-1bc3-4039-a49c-c9efcb22f842,ENVELOPE,ZEEKOEGAT VGK PS,WCEDL000237,TRUE,-33.626766,22.160414,"Mosselbaai Pad Naby, Safari Volstruisplaas, OUDTSHOORN,6620",NULL,NULL,EDEN,OUDTSHOORN,OUDTSHOORN,WCP_71,NULL,WCED,TRUE,124357219
be003577-8ec7-4dfe-9f9b-821c76fa005a,FACILITY,ZEEKOEGAT VGK PS,WCEDL000237.WCEDL000237,TRUE,-33.626766,22.160414,"Mosselbaai Pad Naby, Safari Volstruisplaas, OUDTSHOORN,6620",NULL,NULL,EDEN,OUDTSHOORN,OUDTSHOORN,WCP_71,SCHP,NULL,NULL,NULL
51817ef1-d1f4-47df-8b54-51f7bed77ada,ENVELOPE,SKOOL IN DIE WILDERNIS,WCEDL000183,TRUE,-34.009457,22.451134,"Bundu Farm, VILLIERSDORP,6848",NULL,NULL,EDEN,GEORGE,THEMBALETU,WCP_578,NULL,WCED,TRUE,114322600
d62cf472-0780-4adb-8742-64bfafd69169,FACILITY,SKOOL IN DIE WILDERNIS,WCEDL000183.WCEDL000183,TRUE,-34.009457,22.451134,"Bundu Farm, VILLIERSDORP,6848",NULL,NULL,EDEN,GEORGE,THEMBALETU,WCP_578,SCHO,NULL,NULL,NULL
acaece50-b31e-401c-b64f-5d8a6b726ec5,ENVELOPE,DIEPKLOOF VGK PS,WCEDL000048,TRUE,-33.995006,22.307915,"Diepkloof, Sinksabrug,6530",NULL,NULL,EDEN,MOSSELBAY,BOTHASTRND,WCP_42,NULL,WCED,TRUE,118356271
fb5891cd-7b07-4bf7-9fdc-954ee7d395eb,FACILITY,DIEPKLOOF VGK PS,WCEDL000048.WCEDL000048,TRUE,-33.995006,22.307915,"Diepkloof, Sinksabrug,6530",NULL,NULL,EDEN,MOSSELBAY,BOTHASTRND,WCP_42,SCHP,NULL,NULL,NULL
876a24d2-b4b4-4bf2-8fc1-0691d0597a2d,ENVELOPE,FRANKEN VGK PS,WCEDL000070,TRUE,-33.841903,22.445087,"Langs Pad Na Montagu Pas, Herold,6615",NULL,NULL,EDEN,MOSSELBAY,BOTHASTRND,WCP_42,NULL,WCED,TRUE,118356476
8e9da740-61bd-43d7-a19a-075b84db5e37,FACILITY,FRANKEN VGK PS,WCEDL000070.WCEDL000070,TRUE,-33.841903,22.445087,"Langs Pad Na Montagu Pas, Herold,6615",NULL,NULL,EDEN,MOSSELBAY,BOTHASTRND,WCP_42,SCHP,NULL,NULL,NULL
7b863d9b-d521-470a-9d32-cb034c146de4,ENVELOPE,HOOGEKRAAL SSKV PS,WCEDL000085,TRUE,-34.029578,22.319508,"Hoogekraal, Outeniqua, GEORGE,",NULL,NULL,EDEN,MOSSELBAY,BOTHASTRND,WCP_42,NULL,WCED,TRUE,118358681
bee7a227-5720-4f5d-92ea-13ead991fb3e,FACILITY,HOOGEKRAAL SSKV PS,WCEDL000085.WCEDL000085,TRUE,-34.029578,22.319508,"Hoogekraal, Outeniqua, GEORGE,",NULL,NULL,EDEN,MOSSELBAY,BOTHASTRND,WCP_42,SCHP,NULL,NULL,NULL
2d43b859-b257-41fd-a55c-d381e9367b59,ENVELOPE,WABOOMSKRAAL VGK PS,WCEDL000220,TRUE,-33.875096,22.347666,"Waboomskraal, George,6530",NULL,NULL,EDEN,MOSSELBAY,BOTHASTRND,WCP_42,NULL,WCED,TRUE,118356492
0983f736-6a79-4aa5-af9c-87348d413ec8,FACILITY,WABOOMSKRAAL VGK PS,WCEDL000220.WCEDL000220,TRUE,-33.875096,22.347666,"Waboomskraal, George,6530",NULL,NULL,EDEN,MOSSELBAY,BOTHASTRND,WCP_42,SCHP,NULL,NULL,NULL
22263ee7-5e8f-4bd6-b732-a2a8663cab0a,ENVELOPE,AVONTUUR LB PS,WCEDL000008,TRUE,-33.721454,23.161688,"OLD BAINS ROAD, PK AVONTUUR, AVONTUUR,6490",NULL,NULL,EDEN,GEORGE,VANROOYENS,WCP_310,NULL,WCED,TRUE,125357758
5c35d3b4-38a6-4af9-98e3-d7138ef54b8a,FACILITY,AVONTUUR LB PS,WCEDL000008.WCEDL000008,TRUE,-33.721454,23.161688,"OLD BAINS ROAD, PK AVONTUUR, AVONTUUR,6490",NULL,NULL,EDEN,GEORGE,VANROOYENS,WCP_310,SCHP,NULL,NULL,NULL
46741edf-57c5-467d-81d8-b1f3c603ddd1,ENVELOPE,BRITSEVLAKTE NGK PS,WCEDL000028,TRUE,-33.426502,23.290146,"Britsevlakte, Uniondale,6460",NULL,NULL,EDEN,GEORGE,UNIONDALEE,WCP_1107,NULL,WCED,TRUE,125357871
c2b02d22-afab-4c35-8f4d-a9b98c62789b,FACILITY,BRITSEVLAKTE NGK PS,WCEDL000028.WCEDL000028,TRUE,-33.426502,23.290146,"Britsevlakte, Uniondale,6460",NULL,NULL,EDEN,GEORGE,UNIONDALEE,WCP_1107,SCHP,NULL,NULL,NULL
636d165e-3d77-4965-975e-489c46394291,ENVELOPE,ROOIRIVIER VGK PS,WCEDL000174,TRUE,-33.528657,22.813177,"Rooirivier Plaas, Uniondale Weg, DE RUST,6650",NULL,NULL,EDEN,GEORGE,UNIONDALEE,WCP_1107,NULL,WCED,TRUE,125357820
7f6b07c7-ee22-488b-bfe9-1c0e7a4760d6,FACILITY,ROOIRIVIER VGK PS,WCEDL000174.WCEDL000174,TRUE,-33.528657,22.813177,"Rooirivier Plaas, Uniondale Weg, DE RUST,6650",NULL,NULL,EDEN,GEORGE,UNIONDALEE,WCP_1107,SCHP,NULL,NULL,NULL
8e58a71e-a7c0-4af8-a6af-bf28f22fc8c3,ENVELOPE,SCHEEPERSKRAAL SSKV PS,WCEDL000180,TRUE,-33.700196,22.618003,"Plaas Koutie, Oudtshoorn,6620",NULL,NULL,EDEN,GEORGE,UNIONDALEE,WCP_1107,NULL,WCED,TRUE,124358673
48697169-b480-4556-aa2f-f25dafa5ec15,FACILITY,SCHEEPERSKRAAL SSKV PS,WCEDL000180.WCEDL000180,TRUE,-33.700196,22.618003,"Plaas Koutie, Oudtshoorn,6620",NULL,NULL,EDEN,GEORGE,UNIONDALEE,WCP_1107,SCHP,NULL,NULL,NULL
acc756e8-619d-45a2-91fa-6bfa8e11742a,ENVELOPE,VONDELING NAK PS,WCEDL000217,TRUE,-34.329204,20.837568,"Hoofpad, Witsand,6666",NULL,NULL,OVERBERG,SWELLENDAM,RIETKUIL,WCP_24,NULL,WCED,TRUE,116337242
7cbc9b86-a696-45cc-bd13-54895803d9fd,FACILITY,VONDELING NAK PS,WCEDL000217.WCEDL000217,TRUE,-34.329204,20.837568,"Hoofpad, Witsand,6666",NULL,NULL,OVERBERG,SWELLENDAM,RIETKUIL,WCP_24,SCHP,NULL,NULL,NULL
794b9df6-2cdf-4cdd-9428-eaaf783ded1b,ENVELOPE,GOEDGEGUN VGK PS,WCEDL000074,TRUE,-34.053212,21.339918,"Wegwysersrivier 29, Riversdal,6670",NULL,NULL,EDEN,HESSEQUA,RIVERSDALE,WCP_61,NULL,WCED,TRUE,121357588
9d752a36-fa88-4363-b8b9-cfdf517258a4,FACILITY,GOEDGEGUN VGK PS,WCEDL000074.WCEDL000074,TRUE,-34.053212,21.339918,"Wegwysersrivier 29, Riversdal,6670",NULL,NULL,EDEN,HESSEQUA,RIVERSDALE,WCP_61,SCHP,NULL,NULL,NULL
99106883-f6f8-434f-a28c-492e6b0a06f7,ENVELOPE,DANKOORD VGK PS,WCEDL000041,TRUE,-33.516583,21.163339,"Dankoord, Ladismith,6655",NULL,NULL,EDEN,KANNALAND,LADISMITHH,WCP_34,NULL,WCED,TRUE,123356883
791ddfa9-74b4-4958-956a-3fcef71dec3f,FACILITY,DANKOORD VGK PS,WCEDL000041.WCEDL000041,TRUE,-33.516583,21.163339,"Dankoord, Ladismith,6655",NULL,NULL,EDEN,KANNALAND,LADISMITHH,WCP_34,SCHP,NULL,NULL,NULL
caf74bdb-472c-4b02-80bd-addf0617de50,ENVELOPE,W.J. LE ROUX LB PS,WCEDL000218,TRUE,-33.485254,21.078567,"Voorbaat, Dist. Ladismith,6655",NULL,NULL,EDEN,KANNALAND,LADISMITHH,WCP_34,NULL,WCED,TRUE,123357014
039d941e-9166-4fec-aabd-92ffc2551bb0,FACILITY,W.J. LE ROUX LB PS,WCEDL000218.WCEDL000218,TRUE,-33.485254,21.078567,"Voorbaat, Dist. Ladismith,6655",NULL,NULL,EDEN,KANNALAND,LADISMITHH,WCP_34,SCHP,NULL,NULL,NULL
d52fbda9-0785-4a03-a0ad-ad587ada64e0,ENVELOPE,KLEINFONTEIN PS,WCEDL000099,TRUE,-34.139697,20.216695,"Kleinfontein, Swellendam,6740",NULL,NULL,OVERBERG,SWELLENDAM,SWELLENDAM,WCP_133,NULL,WCED,TRUE,117337714
f563ded7-1b9c-4174-94a5-8cf02171f3ac,FACILITY,KLEINFONTEIN PS,WCEDL000099.WCEDL000099,TRUE,-34.139697,20.216695,"Kleinfontein, Swellendam,6740",NULL,NULL,OVERBERG,SWELLENDAM,SWELLENDAM,WCP_133,SCHP,NULL,NULL,NULL
ff00bcb0-858c-4c11-873c-d18acd6bbc07,ENVELOPE,KLUITJIESKRAAL NGK PS,WCEDL000102,TRUE,-34.155797,20.373484,"Kluitjieskraal Farm, Swellendam,6740",NULL,NULL,OVERBERG,SWELLENDAM,SWELLENDAM,WCP_133,NULL,WCED,TRUE,117337722
dc7aed8d-8ec4-4bf7-8ecc-fde1e411546d,FACILITY,KLUITJIESKRAAL NGK PS,WCEDL000102.WCEDL000102,TRUE,-34.155797,20.373484,"Kluitjieskraal Farm, Swellendam,6740",NULL,NULL,OVERBERG,SWELLENDAM,SWELLENDAM,WCP_133,SCHP,NULL,NULL,NULL
ec7f585e-310c-48a4-9694-cb22ae6dc46e,ENVELOPE,LEMOENSHOEK NGK PS,WCEDL000116,TRUE,-33.856892,20.796507,"Lemoenshoek, Barrydale,6750",NULL,NULL,OVERBERG,SWELLENDAM,BARRYDALEE,WCP_288,NULL,WCED,TRUE,117337846
05f4b630-66c0-449e-9f3e-ba95fd07ef15,FACILITY,LEMOENSHOEK NGK PS,WCEDL000116.WCEDL000116,TRUE,-33.856892,20.796507,"Lemoenshoek, Barrydale,6750",NULL,NULL,OVERBERG,SWELLENDAM,BARRYDALEE,WCP_288,SCHP,NULL,NULL,NULL
9bef516f-cc04-4db4-b7c8-c65c491a2950,ENVELOPE,WELTEVREDE VGK PS (BARRYDALE),WCEDL000228,TRUE,-33.912352,20.647739,"Weltevrede, Barrydale,6750",NULL,NULL,OVERBERG,SWELLENDAM,BARRYDALEE,WCP_288,NULL,WCED,TRUE,117337889
5cab299b-69e9-42ab-af15-75e140957108,FACILITY,WELTEVREDE VGK PS (BARRYDALE),WCEDL000228.WCEDL000228,TRUE,-33.912352,20.647739,"Weltevrede, Barrydale,6750",NULL,NULL,OVERBERG,SWELLENDAM,BARRYDALEE,WCP_288,SCHP,NULL,NULL,NULL
a846a507-71a3-4cca-9ef1-e934de42692d,ENVELOPE,OUPLAAS EK PS,WCEDL000154,TRUE,-34.378218,20.435612,"OUPLAAS, WYDGELEE, BREDASDORP,7282",NULL,NULL,OVERBERG,SWELLENDAM,RIETKUIL,WCP_24,NULL,WCED,TRUE,113336068
4901299a-e5c1-478c-b78c-28fc9f61604e,FACILITY,OUPLAAS EK PS,WCEDL000154.WCEDL000154,TRUE,-34.378218,20.435612,"OUPLAAS, WYDGELEE, BREDASDORP,7282",NULL,NULL,OVERBERG,SWELLENDAM,RIETKUIL,WCP_24,SCHP,NULL,NULL,NULL
821ead6c-5267-4b4e-80ed-eaa1e4f44d74,ENVELOPE,ST. PAULS LS,WCEDL000197,TRUE,-34.484258,19.589904,"Withoogte Farm, Stanford,",NULL,NULL,OVERBERG,OVERSTRAND,BAARDSCHB,WCP_733,NULL,WCED,TRUE,115336548
97c70f04-e9b3-4a00-85fd-b619e58e6699,FACILITY,ST. PAUL'S LS,WCEDL000197.WCEDL000197,TRUE,-34.484258,19.589904,"Withoogte Farm, Stanford,",NULL,NULL,OVERBERG,OVERSTRAND,BAARDSCHB,WCP_733,SCHP,NULL,NULL,NULL
243d569d-bf2a-4862-a65e-ba5bff80ff4e,ENVELOPE,BLOEMENHOF NGK PS,WCEDL000018,TRUE,-34.126832,19.821205,"BEYERSTRUST PLASE, GANSKRAAL, RIVIERSONDEREND,7250",NULL,NULL,OVERBERG,THEEWATERS,MIDDLETONN,WCP_107,NULL,WCED,TRUE,114336696
0fd9a38a-a57d-4cdc-a266-28658e308ef5,FACILITY,BLOEMENHOF NGK PS,WCEDL000018.WCEDL000018,TRUE,-34.126832,19.821205,"BEYERSTRUST PLASE, GANSKRAAL, RIVIERSONDEREND,7250",NULL,NULL,OVERBERG,THEEWATERS,MIDDLETONN,WCP_107,SCHP,NULL,NULL,NULL
46c27f8a-336f-43bc-8522-316396b7becf,ENVELOPE,BOONTJIESKRAAL PS,WCEDL000022,TRUE,-34.206463,19.33861,"BOONTJIESKRAALLANDGOED, CALEDON,7230",NULL,NULL,OVERBERG,THEEWATERS,GENADENDAL,WCP_1051,NULL,WCED,TRUE,114336440
df3fa7ff-8576-4844-8e33-45e21d98a27b,FACILITY,BOONTJIESKRAAL PS,WCEDL000022.WCEDL000022,TRUE,-34.206463,19.33861,"BOONTJIESKRAALLANDGOED, CALEDON,7230",NULL,NULL,OVERBERG,THEEWATERS,GENADENDAL,WCP_1051,SCHP,NULL,NULL,NULL
a73e0cc1-73dd-4e0d-88bb-6ed0b6cc4a79,ENVELOPE,ELANDSRIVIER NGK PS,WCEDL000057,TRUE,-33.918817,19.281755,"Kaaimansgat Boerdery, Villiersdorp,6848",NULL,NULL,OVERBERG,THEEWATERS,VILLIERSDP,WCP_225,NULL,WCED,TRUE,114336351
babb49b4-372b-4739-81d3-159ea05d806c,FACILITY,ELANDSRIVIER NGK PS,WCEDL000057.WCEDL000057,TRUE,-33.918817,19.281755,"Kaaimansgat Boerdery, Villiersdorp,6848",NULL,NULL,OVERBERG,THEEWATERS,VILLIERSDP,WCP_225,SCHP,NULL,NULL,NULL
ec2e9f0e-d530-424a-b217-b722f50bf437,ENVELOPE,DE RUST FUTURA AKADEMIE,WCEDL000044,TRUE,-34.176712,19.07797,"Patryslaagte, De Rust Landgoed, GRABOUW,7160",NULL,NULL,OVERBERG,THEEWATERS,BOTRIVIERR,WCP_952,NULL,WCED,TRUE,114336734
42b2f844-e818-4324-8fb6-b434a10819b3,FACILITY,DE RUST FUTURA AKADEMIE,WCEDL000044.WCEDL000044,TRUE,-34.176712,19.07797,"Patryslaagte, De Rust Landgoed, GRABOUW,7160",NULL,NULL,OVERBERG,THEEWATERS,BOTRIVIERR,WCP_952,SCHO,NULL,NULL,NULL
f7a1efef-7a4f-4136-ac0f-a6acda7f24a2,ENVELOPE,ST. MICHAELS EK PS,WCEDL000196,TRUE,-34.173368,18.998862,"Elgin Orchards, Grabouw,7160",NULL,NULL,OVERBERG,THEEWATERS,GRABOUWW,WCP_55,NULL,WCED,TRUE,114336254
2307a15d-74a8-4a68-b5cf-b99d33834da2,FACILITY,ST. MICHAEL'S EK PS,WCEDL000196.WCEDL000196,TRUE,-34.173368,18.998862,"Elgin Orchards, Grabouw,7160",NULL,NULL,OVERBERG,THEEWATERS,GRABOUWW,WCP_55,SCHP,NULL,NULL,NULL
1fb0189e-acaa-4cf3-a339-8de4323fbf8b,ENVELOPE,GLEN ELGIN MOR PS,WCEDL000072,TRUE,-34.147761,19.042631,"Trio Way, Molteno Trust, ELGIN,7180",NULL,NULL,OVERBERG,THEEWATERS,GRABOUWW,WCP_55,NULL,WCED,TRUE,114336653
e8bee749-0770-4dc6-9926-64d4988d6117,FACILITY,GLEN ELGIN MOR PS,WCEDL000072.WCEDL000072,TRUE,-34.147761,19.042631,"Trio Way, Molteno Trust, ELGIN,7180",NULL,NULL,OVERBERG,THEEWATERS,GRABOUWW,WCP_55,SCHP,NULL,NULL,NULL
61b9b97c-41cb-4e06-b977-4cd499ac3b80,ENVELOPE,BUFFELSKLOOF SSKV PS,WCEDL000030,TRUE,-34.000346,19.884742,"Buffelskloof, Mcgregor,6708",NULL,NULL,CAPEWINELA,LANGEBERG,MCGREGORR,WCP_442,NULL,WCED,TRUE,128338532
943f2101-8923-48d6-bce7-19b3747eae8e,FACILITY,BUFFELSKLOOF SSKV PS,WCEDL000030.WCEDL000030,TRUE,-34.000346,19.884742,"Buffelskloof, Mcgregor,6708",NULL,NULL,CAPEWINELA,LANGEBERG,MCGREGORR,WCP_442,SCHP,NULL,NULL,NULL
f94a723d-7d65-4cd0-8676-2b51776ed191,ENVELOPE,UITNOOD NGK PS,WCEDL000213,TRUE,-33.86407,19.887064,"Uitnood, Robertson,6705",NULL,NULL,CAPEWINELA,LANGEBERG,MCGREGORR,WCP_442,NULL,WCED,TRUE,128337587
d1dc3dd0-b93c-4432-9c34-f7889c9af3fa,FACILITY,UITNOOD NGK PS,WCEDL000213.WCEDL000213,TRUE,-33.86407,19.887064,"Uitnood, Robertson,6705",NULL,NULL,CAPEWINELA,LANGEBERG,MCGREGORR,WCP_442,SCHP,NULL,NULL,NULL
12fde950-5171-4b0b-9f4d-ee690741287d,ENVELOPE,WILLEM BUCHHOLZ NGK PS,WCEDL000234,TRUE,-33.953446,19.602426,"Sewefontein, Robertson,6705",NULL,NULL,CAPEWINELA,LANGEBERG,MCGREGORR,WCP_442,NULL,WCED,TRUE,128337668
fb9bf79a-01a2-48bd-ba15-c10eb8d3b95a,FACILITY,WILLEM BUCHHOLZ NGK PS,WCEDL000234.WCEDL000234,TRUE,-33.953446,19.602426,"Sewefontein, Robertson,6705",NULL,NULL,CAPEWINELA,LANGEBERG,MCGREGORR,WCP_442,SCHP,NULL,NULL,NULL
56bbd048-359e-4c87-bbd1-0f4c221dd698,ENVELOPE,EILANDIA NGK PS,WCEDL000055,TRUE,-33.774107,19.671357,"Heartstone Vineyards, Eilandia, ROBERTSON,",NULL,NULL,CAPEWINELA,LANGEBERG,ROBERTSONN,WCP_155,NULL,WCED,TRUE,128337641
33a21dfa-f32f-4f78-afae-446d9e83e4ac,FACILITY,EILANDIA NGK PS,WCEDL000055.WCEDL000055,TRUE,-33.774107,19.671357,"Heartstone Vineyards, Eilandia, ROBERTSON,",NULL,NULL,CAPEWINELA,LANGEBERG,ROBERTSONN,WCP_155,SCHP,NULL,NULL,NULL
4e42782d-6620-4afd-8771-d142558329d5,ENVELOPE,HUGUENOOT VGK PS,WCEDL000087,TRUE,-33.81069,19.781668,"Goree, Robertson,6705",NULL,NULL,CAPEWINELA,LANGEBERG,ROBERTSONN,WCP_155,NULL,WCED,TRUE,128337617
c0456b8f-a58b-4fc1-9c97-0d4421992601,FACILITY,HUGUENOOT VGK PS,WCEDL000087.WCEDL000087,TRUE,-33.81069,19.781668,"Goree, Robertson,6705",NULL,NULL,CAPEWINELA,LANGEBERG,ROBERTSONN,WCP_155,SCHP,NULL,NULL,NULL
e1691818-bd3d-45e6-ada4-5360a9e1abb1,ENVELOPE,A.F. KRIEL VGK PS,WCEDL000001,TRUE,-33.813441,20.193258,"DERDEHEUWEL, MONTAGU,6720",NULL,NULL,CAPEWINELA,LANGEBERG,MONTAGUU,WCP_351,NULL,WCED,TRUE,127337447
0adab6c6-b361-4999-b3d0-02d278591380,FACILITY,A.F. KRIEL VGK PS,WCEDL000001.WCEDL000001,TRUE,-33.813441,20.193258,"DERDEHEUWEL, MONTAGU,6720",NULL,NULL,CAPEWINELA,LANGEBERG,MONTAGUU,WCP_351,SCHP,NULL,NULL,NULL
e86455d2-f6c4-4270-9ccc-e6b88a59f779,ENVELOPE,RIETVLEI NR 1 EK PS (MONTAGU),WCEDL000169,TRUE,-33.841479,20.2264,"Rietvlei 1, Montagu,6720",NULL,NULL,CAPEWINELA,LANGEBERG,MONTAGUU,WCP_351,NULL,WCED,TRUE,127337471
044d18f2-63c0-4cb1-810b-16d2b2b7546d,FACILITY,RIETVLEI NR 1 EK PS (MONTAGU),WCEDL000169.WCEDL000169,TRUE,-33.841479,20.2264,"Rietvlei 1, Montagu,6720",NULL,NULL,CAPEWINELA,LANGEBERG,MONTAGUU,WCP_351,SCHP,NULL,NULL,NULL
03601ae9-0abb-411f-8a67-ec09c3878445,ENVELOPE,BOESMANSRIVIER NGK PS,WCEDL000020,TRUE,-33.994801,20.012104,"OUDEKRAAL, BONNIEVALE,6730",NULL,NULL,CAPEWINELA,LANGEBERG,BONNIEVALE,WCP_1551,NULL,WCED,TRUE,117338273
5dd37eb4-35ef-4323-b09f-c41d5ebc1749,FACILITY,BOESMANSRIVIER NGK PS,WCEDL000020.WCEDL000020,TRUE,-33.994801,20.012104,"OUDEKRAAL, BONNIEVALE,6730",NULL,NULL,CAPEWINELA,LANGEBERG,BONNIEVALE,WCP_1551,SCHP,NULL,NULL,NULL
5f6d8423-bc02-47df-8687-ed4a34c7e8a3,ENVELOPE,GELUKSHOOP NGK PS,WCEDL000071,TRUE,-33.967222,20.128,"Na-Die-Oes, BONNIEVALE,6730",NULL,NULL,CAPEWINELA,LANGEBERG,BONNIEVALE,WCP_1551,NULL,WCED,TRUE,117338435
165387c7-7b09-4bfe-874c-92bc794185ed,FACILITY,GELUKSHOOP NGK PS,WCEDL000071.WCEDL000071,TRUE,-33.967222,20.128,"Na-Die-Oes, BONNIEVALE,6730",NULL,NULL,CAPEWINELA,LANGEBERG,BONNIEVALE,WCP_1551,SCHP,NULL,NULL,NULL
b3cc21f4-8fd4-4957-8868-7b8c83c8c2a9,ENVELOPE,MARAISDAL NGK PS,WCEDL000124,TRUE,-33.936559,20.009468,"Maraisdal, Bonnievale,6730",NULL,NULL,CAPEWINELA,LANGEBERG,BONNIEVALE,WCP_1551,NULL,WCED,TRUE,117338303
2b54c5da-86e6-4e16-a674-e3b73a634538,FACILITY,MARAISDAL NGK PS,WCEDL000124.WCEDL000124,TRUE,-33.936559,20.009468,"Maraisdal, Bonnievale,6730",NULL,NULL,CAPEWINELA,LANGEBERG,BONNIEVALE,WCP_1551,SCHP,NULL,NULL,NULL
2913afbf-26f8-487b-beb6-8fd554559f5b,ENVELOPE,WABOOMSHEUWEL NGK PS,WCEDL000219,TRUE,-34.020428,20.220203,"233 Waboomsheuwel, Plaas Waboomsheuwel,6730",NULL,NULL,CAPEWINELA,LANGEBERG,BONNIEVALE,WCP_1551,NULL,WCED,TRUE,117338354
d2445ec3-04c6-450c-9377-ee32d2b1e615,FACILITY,WABOOMSHEUWEL NGK PS,WCEDL000219.WCEDL000219,TRUE,-34.020428,20.220203,"233 Waboomsheuwel, Plaas Waboomsheuwel,6730",NULL,NULL,CAPEWINELA,LANGEBERG,BONNIEVALE,WCP_1551,SCHP,NULL,NULL,NULL
92cf7dff-0759-4fc8-9016-5e78abe85dba,ENVELOPE,WAKKERSTROOM-OOS NGK PS,WCEDL000221,TRUE,-33.914125,20.011312,"WOLVENDRIFT, WAKKERSTROOM-OOS, BONNIEVALE,6730",NULL,NULL,CAPEWINELA,LANGEBERG,BONNIEVALE,WCP_1551,NULL,WCED,TRUE,128338281
d3521303-d6f1-4ef4-916c-f219a566781a,FACILITY,WAKKERSTROOM-OOS NGK PS,WCEDL000221.WCEDL000221,TRUE,-33.914125,20.011312,"WOLVENDRIFT, WAKKERSTROOM-OOS, BONNIEVALE,6730",NULL,NULL,CAPEWINELA,LANGEBERG,BONNIEVALE,WCP_1551,SCHP,NULL,NULL,NULL
73bf279f-60f0-446f-ae2d-3daecc245162,ENVELOPE,WELVILLE EK PS,WCEDL000230,TRUE,-33.986085,20.171419,"Welville Plaas, Bonnievale,6730",NULL,NULL,CAPEWINELA,LANGEBERG,BONNIEVALE,WCP_1551,NULL,WCED,TRUE,117337838
66c5e78e-7e04-4d38-8bc5-d2a687f0d823,FACILITY,WELVILLE EK PS,WCEDL000230.WCEDL000230,TRUE,-33.986085,20.171419,"Welville Plaas, Bonnievale,6730",NULL,NULL,CAPEWINELA,LANGEBERG,BONNIEVALE,WCP_1551,SCHP,NULL,NULL,NULL
b741f915-24c6-462a-8d57-12fe4a09f1f5,ENVELOPE,BADEN NGK PS,WCEDL000010,TRUE,-33.719552,20.118809,"BADEN, MONTAGU,6720",NULL,NULL,CAPEWINELA,LANGEBERG,MONTAGUU,WCP_351,NULL,WCED,TRUE,127337404
0ededa75-35ed-41a3-b351-1f2ad8e24529,FACILITY,BADEN NGK PS,WCEDL000010.WCEDL000010,TRUE,-33.719552,20.118809,"BADEN, MONTAGU,6720",NULL,NULL,CAPEWINELA,LANGEBERG,MONTAGUU,WCP_351,SCHP,NULL,NULL,NULL
efea03ea-c520-4f5a-887a-959fefd33036,ENVELOPE,KEISIE VGK PS,WCEDL000096,TRUE,-33.701558,20.007753,"Goedemoed, Montagu,6720",NULL,NULL,CAPEWINELA,LANGEBERG,MONTAGUU,WCP_351,NULL,WCED,TRUE,127337536
0c82d7a7-016c-4039-9dc2-f09b4e1f99d1,FACILITY,KEISIE VGK PS,WCEDL000096.WCEDL000096,TRUE,-33.701558,20.007753,"Goedemoed, Montagu,6720",NULL,NULL,CAPEWINELA,LANGEBERG,MONTAGUU,WCP_351,SCHP,NULL,NULL,NULL
7cd0f9e2-bae7-4f4c-9dc6-bff384cce005,ENVELOPE,PIETERSFONTEIN NGK PS,WCEDL000166,TRUE,-33.662543,20.009804,"Pietersfontein Plaas, Pietersfontein, MONTAGU,6720",NULL,NULL,CAPEWINELA,LANGEBERG,MONTAGUU,WCP_351,NULL,WCED,TRUE,127337552
9b0579d1-298d-4eea-b55a-d406ee8b4616,FACILITY,PIETERSFONTEIN NGK PS,WCEDL000166.WCEDL000166,TRUE,-33.662543,20.009804,"Pietersfontein Plaas, Pietersfontein, MONTAGU,6720",NULL,NULL,CAPEWINELA,LANGEBERG,MONTAGUU,WCP_351,SCHP,NULL,NULL,NULL
233d7882-16c9-4c83-8f9c-8e5e25cb5a4f,ENVELOPE,GLEN HEATLIE AME PS,WCEDL000073,TRUE,-33.601965,19.51513,"Vermeulen Street, De Wet,6853",NULL,NULL,CAPEWINELA,BREEDEVALL,WORCESTERR,WCP_45,NULL,WCED,TRUE,130337978
c9bd347f-00df-47b2-ae21-b34e44125f0a,FACILITY,GLEN HEATLIE AME PS,WCEDL000073.WCEDL000073,TRUE,-33.601965,19.51513,"Vermeulen Street, De Wet,6853",NULL,NULL,CAPEWINELA,BREEDEVALL,WORCESTERR,WCP_45,SCHP,NULL,NULL,NULL
dde15bc3-229d-46b5-b099-2ada7e792ac0,ENVELOPE,SANDHILLS NGK  PS,WCEDL000178,TRUE,-33.517602,19.551994,"Amandelrivier, SANDHILLS,6854",NULL,NULL,CAPEWINELA,BREEDEVALL,WORCESTERR,WCP_45,NULL,WCED,TRUE,130338036
dde95b82-6ca5-4b65-9803-17ab61b34632,FACILITY,SANDHILLS NGK  PS,WCEDL000178.WCEDL000178,TRUE,-33.517602,19.551994,"Amandelrivier, SANDHILLS,6854",NULL,NULL,CAPEWINELA,BREEDEVALL,WORCESTERR,WCP_45,SCHP,NULL,NULL,NULL
45d8d4e4-a4c8-44e9-bf8b-6f365205712f,ENVELOPE,LEIPZIG SSKV PS,WCEDL000115,TRUE,-33.639195,19.627911,"Sonja Plaas, Nuy, WORCESTER,6849",NULL,NULL,CAPEWINELA,BREEDEVALL,WORCESTERR,WCP_422,NULL,WCED,TRUE,130338729
fe16d01a-c766-4876-b429-19b798a5ec67,FACILITY,LEIPZIG SSKV PS,WCEDL000115.WCEDL000115,TRUE,-33.639195,19.627911,"Sonja Plaas, Nuy, WORCESTER,6849",NULL,NULL,CAPEWINELA,BREEDEVALL,WORCESTERR,WCP_422,SCHP,NULL,NULL,NULL
87332965-4710-47cb-9aa1-0e58354292c3,ENVELOPE,NUYSTASIE NGK PS,WCEDL000150,TRUE,-33.6763,19.61422,"Oude Schuur, Nuy, NUYPLAAS PAD,6861",NULL,NULL,CAPEWINELA,BREEDEVALL,WORCESTERR,WCP_422,NULL,WCED,TRUE,130338222
8f3a659c-23ee-437a-98a5-e62395ebc658,FACILITY,NUYSTASIE NGK PS,WCEDL000150.WCEDL000150,TRUE,-33.6763,19.61422,"Oude Schuur, Nuy, NUYPLAAS PAD,6861",NULL,NULL,CAPEWINELA,BREEDEVALL,WORCESTERR,WCP_422,SCHP,NULL,NULL,NULL
4217a83c-235c-4bd6-8d3c-50a3900d64b4,ENVELOPE,OVERHEX NGK PS,WCEDL000158,TRUE,-33.664103,19.543337,"Nooitgedacht Plaas, Overhex, WORCESTER,",NULL,NULL,CAPEWINELA,BREEDEVALL,WORCESTERR,WCP_422,NULL,WCED,TRUE,130338249
06ef70e6-9a8c-4eb4-8b77-898bfb9487db,FACILITY,OVERHEX NGK PS,WCEDL000158.WCEDL000158,TRUE,-33.664103,19.543337,"Nooitgedacht Plaas, Overhex, WORCESTER,",NULL,NULL,CAPEWINELA,BREEDEVALL,WORCESTERR,WCP_422,SCHP,NULL,NULL,NULL
10b2e5b9-1b93-4ef0-b2bc-231b631374be,ENVELOPE,LORRAINE NGK PS,WCEDL000121,TRUE,-33.706987,19.265473,"Lorraine Plaas, Rawsonville,6845",NULL,NULL,CAPEWINELA,BREEDEVALL,RAWSONVILE,WCP_963,NULL,WCED,TRUE,130337935
527b14b1-2045-429b-8267-f3a25dc366f6,FACILITY,LORRAINE NGK PS,WCEDL000121.WCEDL000121,TRUE,-33.706987,19.265473,"Lorraine Plaas, Rawsonville,6845",NULL,NULL,CAPEWINELA,BREEDEVALL,RAWSONVILE,WCP_963,SCHP,NULL,NULL,NULL
e77aca2e-64cd-46f4-b569-d162672f0836,ENVELOPE,STETTYN PS,WCEDL000205,TRUE,-33.897923,19.36906,"Stettyn Vineyards, Worcester,6850",NULL,NULL,CAPEWINELA,BREEDEVALL,RAWSONVILE,WCP_963,NULL,WCED,TRUE,130336335
3bc5914a-6170-4728-8b4d-8c4b696496d6,FACILITY,STETTYN PS,WCEDL000205.WCEDL000205,TRUE,-33.897923,19.36906,"Stettyn Vineyards, Worcester,6850",NULL,NULL,CAPEWINELA,BREEDEVALL,RAWSONVILE,WCP_963,SCHP,NULL,NULL,NULL
5bae11f8-ec9a-4c10-92e9-92365e5d67b5,ENVELOPE,WELTEVREDE NGK PS (WORCESTER),WCEDL000227,TRUE,-33.725887,19.347452,"Louwshoek, Rawsonville,6845",NULL,NULL,CAPEWINELA,BREEDEVALL,RAWSONVILE,WCP_963,NULL,WCED,TRUE,130337951
31f193c0-61f3-462f-93ed-fcda0454ebeb,FACILITY,WELTEVREDE NGK PS (WORCESTER),WCEDL000227.WCEDL000227,TRUE,-33.725887,19.347452,"Louwshoek, Rawsonville,6845",NULL,NULL,CAPEWINELA,BREEDEVALL,RAWSONVILE,WCP_963,SCHP,NULL,NULL,NULL
2444f65e-95cf-4bae-a571-7d3c7b951c57,ENVELOPE,BREEDE VALLEY SOS,WCEDL000026,TRUE,-33.674602,19.269908,"Slanghoekweg, Rawsonville,6845",NULL,NULL,CAPEWINELA,BREEDEVALL,RAWSONVILE,WCP_963,NULL,NULL,NULL,NULL
5291feca-4915-4adf-b54b-6c71b1b6470c,FACILITY,BREEDE VALLEY SOS,WCEDL000026.WCEDL000026,TRUE,-33.674602,19.269908,"Slanghoekweg, Rawsonville,6845",NULL,NULL,CAPEWINELA,BREEDEVALL,RAWSONVILE,WCP_963,SCP,NULL,NULL,NULL
0cf21158-74d3-4aa3-8666-51fa86d29353,ENVELOPE,SLANGHOEK NGK PS,WCEDL000184,TRUE,-33.60472,19.230514,"Driefontein, Pk Rawsonville,6845",NULL,NULL,CAPEWINELA,BREEDEVALL,RAWSONVILE,WCP_963,NULL,WCED,TRUE,130337927
5cc74a8c-90b4-4224-884b-fa729550d6f4,FACILITY,SLANGHOEK NGK PS,WCEDL000184.WCEDL000184,TRUE,-33.60472,19.230514,"Driefontein, Pk Rawsonville,6845",NULL,NULL,CAPEWINELA,BREEDEVALL,RAWSONVILE,WCP_963,SCHP,NULL,NULL,NULL
12ed74b8-0781-4a72-bcaa-3c9de92605cc,ENVELOPE,ST. VINCENT RC PRIMARY SCHOOL,WCEDL000200,TRUE,-33.873985,18.814807,"Kromme Rhee Weg, Koelenhof,7605",NULL,NULL,CAPEWINELA,STELLENBOS,STELLENBOH,WCP_12,NULL,WCED,TRUE,109327352
ce20ccf9-1b04-40aa-bd1d-4ae2d7c9099e,FACILITY,ST. VINCENT RC PRIMARY SCHOOL,WCEDL000200.WCEDL000200,TRUE,-33.873985,18.814807,"Kromme Rhee Weg, Koelenhof,7605",NULL,NULL,CAPEWINELA,STELLENBOS,STELLENBOH,WCP_12,SCHP,NULL,NULL,NULL
82f1639a-2888-4236-9441-0e0a2f53c411,ENVELOPE,GROENBERG NGK PS,WCEDL000076,TRUE,-33.566846,19.008789,"Upper Hermon way Groenberg, Wellington,",NULL,NULL,CAPEWINELA,DRAKENSTEI,WELLINGTON,WCP_244,NULL,WCED,TRUE,112476439
50c25299-550b-4114-ba08-37a51178f29b,FACILITY,GROENBERG NGK PS,WCEDL000076.WCEDL000076,TRUE,-33.566846,19.008789,"Upper Hermon way Groenberg, Wellington,",NULL,NULL,CAPEWINELA,DRAKENSTEI,WELLINGTON,WCP_244,SCHP,NULL,NULL,NULL
a3c571f3-fc2c-4c71-8ae2-76f0cf85c4fd,ENVELOPE,BOTHAS HALTE NGK PS,WCEDL000025,TRUE,-33.55819,19.264415,"BOESMANSVLEI, BOTHA,6857",NULL,NULL,CAPEWINELA,WITZENBERG,WOLSELEYY,WCP_490,NULL,WCED,TRUE,130338214
b1018106-c2e9-4d9b-a653-b91fc30278e5,FACILITY,BOTHA'S HALTE NGK PS,WCEDL000025.WCEDL000025,TRUE,-33.55819,19.264415,"BOESMANSVLEI, BOTHA,6857",NULL,NULL,CAPEWINELA,WITZENBERG,WOLSELEYY,WCP_490,SCHP,NULL,NULL,NULL
c965a16f-3f74-4202-aac7-d79591d97f7c,ENVELOPE,ERRIE MOLLER NGK PS,WCEDL000062,TRUE,-33.416933,19.24125,"Waverley, Wolseley,6830",NULL,NULL,CAPEWINELA,WITZENBERG,WOLSELEYY,WCP_490,NULL,WCED,TRUE,129338745
d1066e28-0346-4041-8b4b-b43fe5a8e13d,FACILITY,ERRIE MOLLER NGK PS,WCEDL000062.WCEDL000062,TRUE,-33.416933,19.24125,"Waverley, Wolseley,6830",NULL,NULL,CAPEWINELA,WITZENBERG,WOLSELEYY,WCP_490,SCHP,NULL,NULL,NULL
63ba8d1b-06c5-4e19-a1e2-ec593915c28a,ENVELOPE,FAIRFIELD NGK PS,WCEDL000068,TRUE,-33.321568,19.281572,"Fairfield Plaas, Ceres,6835",NULL,NULL,CAPEWINELA,WITZENBERG,CERESS,WCP_365,NULL,WCED,TRUE,126336823
277c4d44-553c-433d-beaa-80b626f30f74,FACILITY,FAIRFIELD NGK PS,WCEDL000068.WCEDL000068,TRUE,-33.321568,19.281572,"Fairfield Plaas, Ceres,6835",NULL,NULL,CAPEWINELA,WITZENBERG,CERESS,WCP_365,SCHP,NULL,NULL,NULL
3f005925-4d15-41a0-bf1a-a737139c1488,ENVELOPE,ACHTERTUIN AME PS,WCEDL000003,TRUE,-33.379995,19.359144,"BUCHULAND, CERES,6835",NULL,NULL,CAPEWINELA,WITZENBERG,CERESS,WCP_703,NULL,WCED,TRUE,126337994
8fa70cd6-7ddb-46ad-8b9e-188d01e8de15,FACILITY,ACHTERTUIN AME PS,WCEDL000003.WCEDL000003,TRUE,-33.379995,19.359144,"BUCHULAND, CERES,6835",NULL,NULL,CAPEWINELA,WITZENBERG,CERESS,WCP_703,SCHP,NULL,NULL,NULL
d058024d-3ca8-4a03-8ead-fa8f2b047d0c,ENVELOPE,EZELFONTEIN NGK PS,WCEDL000065,TRUE,-33.399893,19.420061,"Ezelfontein, Ceres,6835",NULL,NULL,CAPEWINELA,WITZENBERG,CERESS,WCP_703,NULL,WCED,TRUE,126336858
9952c638-fce0-44c8-999c-87ad5ecfe6c1,FACILITY,EZELFONTEIN NGK PS,WCEDL000065.WCEDL000065,TRUE,-33.399893,19.420061,"Ezelfontein, Ceres,6835",NULL,NULL,CAPEWINELA,WITZENBERG,CERESS,WCP_703,SCHP,NULL,NULL,NULL
6b2f47fa-f0e7-4872-af51-67387e35b508,ENVELOPE,STEINTHAL SS,WCEDL000203,TRUE,-33.279468,19.18581,"Steinthallandgoed, Tulbagh,6820",NULL,NULL,CAPEWINELA,WITZENBERG,WOLSELEYY,WCP_460,NULL,WCED,TRUE,129333050
323a3874-bc29-4f51-a141-45780f053fe0,FACILITY,STEINTHAL SS,WCEDL000203.WCEDL000203,TRUE,-33.279468,19.18581,"Steinthallandgoed, Tulbagh,6820",NULL,NULL,CAPEWINELA,WITZENBERG,WOLSELEYY,WCP_460,SCP,NULL,NULL,NULL
0f7bbd30-ae95-4eef-bc32-b33d1598345e,ENVELOPE,BOPLAAS NGK PS,WCEDL000024,TRUE,-32.976616,19.363929,"BOPLAAS, KOUE BOKKEVELD,6836",NULL,NULL,CAPEWINELA,WITZENBERG,OPDIEBERGG,WCP_393,NULL,WCED,TRUE,126336963
2e0deb2f-2abd-48d9-b6c6-2375784a7690,FACILITY,BOPLAAS NGK PS,WCEDL000024.WCEDL000024,TRUE,-32.976616,19.363929,"BOPLAAS, KOUE BOKKEVELD,6836",NULL,NULL,CAPEWINELA,WITZENBERG,OPDIEBERGG,WCP_393,SCHP,NULL,NULL,NULL
47af5b4c-722d-4bc9-af08-cbf15bc6e69c,ENVELOPE,PIET HUGO GEDENK NGK PS,WCEDL000165,TRUE,-33.173638,19.335299,"Elandsfontein, Koue Bokkeveld,6836",NULL,NULL,CAPEWINELA,WITZENBERG,OPDIEBERGG,WCP_393,NULL,WCED,TRUE,126337005
295dbfa8-a791-4ff2-bef5-5e8c02c5b1f8,FACILITY,PIET HUGO GEDENK NGK PS,WCEDL000165.WCEDL000165,TRUE,-33.173638,19.335299,"Elandsfontein, Koue Bokkeveld,6836",NULL,NULL,CAPEWINELA,WITZENBERG,OPDIEBERGG,WCP_393,SCHP,NULL,NULL,NULL
07835137-8720-43fd-9980-c6e7344f9c8b,ENVELOPE,AGTERWITZENBERG VGK PS,WCEDL000005,TRUE,-33.23133,19.246487,"VGK KERK DIE EIKE RD, WITZENBERGVALLE,6835",NULL,NULL,CAPEWINELA,WITZENBERG,PRINCEALFT,WCP_1111,NULL,WCED,TRUE,126336831
07c20a53-91c0-41ec-b1cf-075360d203ec,FACILITY,AGTERWITZENBERG VGK PS,WCEDL000005.WCEDL000005,TRUE,-33.23133,19.246487,"VGK KERK DIE EIKE RD, WITZENBERGVALLE,6835",NULL,NULL,CAPEWINELA,WITZENBERG,PRINCEALFT,WCP_1111,SCHP,NULL,NULL,NULL
c7cdbe38-e18b-46ad-b9b9-43b3ca754a3b,ENVELOPE,DIE EIKE VGK PS,WCEDL000047,TRUE,-33.208417,19.224896,"Die Eike Plaas, Witzenberg Vallei, CERES,",NULL,NULL,CAPEWINELA,WITZENBERG,PRINCEALFT,WCP_1111,NULL,WCED,TRUE,126336769
ecddea49-c004-483a-9979-d4fa9a565ccf,FACILITY,DIE EIKE VGK PS,WCEDL000047.WCEDL000047,TRUE,-33.208417,19.224896,"Die Eike Plaas, Witzenberg Vallei, CERES,",NULL,NULL,CAPEWINELA,WITZENBERG,PRINCEALFT,WCP_1111,SCHP,NULL,NULL,NULL
39d00a3d-7f76-44d1-baca-3bbaf5728d0e,ENVELOPE,KOELFONTEIN NGK PS,WCEDL000105,TRUE,-33.258868,19.336647,"Koelfontein, Prince Alfred Hamlet,6840",NULL,NULL,CAPEWINELA,WITZENBERG,PRINCEALFT,WCP_1111,NULL,WCED,TRUE,126336807
5a7bbdf9-0d11-46df-a329-da2960613cf9,FACILITY,KOELFONTEIN NGK PS,WCEDL000105.WCEDL000105,TRUE,-33.258868,19.336647,"Koelfontein, Prince Alfred Hamlet,6840",NULL,NULL,CAPEWINELA,WITZENBERG,PRINCEALFT,WCP_1111,SCHP,NULL,NULL,NULL
5f7db91c-0689-4e2e-943d-e0ed3531d040,ENVELOPE,PAARDEKLOOF NGK PS,WCEDL000159,TRUE,-33.261509,19.254517,"Paardekloof Landgoed, Ceres,6835",NULL,NULL,CAPEWINELA,WITZENBERG,PRINCEALFT,WCP_1111,NULL,WCED,TRUE,126336777
914331a1-183e-4f16-b35b-b0755b1c18d5,FACILITY,PAARDEKLOOF NGK PS,WCEDL000159.WCEDL000159,TRUE,-33.261509,19.254517,"Paardekloof Landgoed, Ceres,6835",NULL,NULL,CAPEWINELA,WITZENBERG,PRINCEALFT,WCP_1111,SCHP,NULL,NULL,NULL
d4c701b1-39df-41ba-966d-65de553ed14d,ENVELOPE,MONTROUGE VGK PS,WCEDL000140,TRUE,-33.199098,19.159457,"Montrouge, Tulbagh,6820",NULL,NULL,CAPEWINELA,WITZENBERG,TULBAGHH,WCP_591,NULL,WCED,TRUE,129338761
6d460235-7898-4dd4-bbc5-667bbb4f3412,FACILITY,MONTROUGE VGK PS,WCEDL000140.WCEDL000140,TRUE,-33.199098,19.159457,"Montrouge, Tulbagh,6820",NULL,NULL,CAPEWINELA,WITZENBERG,TULBAGHH,WCP_591,SCHP,NULL,NULL,NULL
d11a236e-717a-4b9b-b488-ad325bf1d923,ENVELOPE,TWEE JONGE GEZELLEN VGK PS,WCEDL000211,TRUE,-33.234482,19.115039,"Twee Jonge Gezellen-Landgoed, Tulbagh,6820",NULL,NULL,CAPEWINELA,WITZENBERG,TULBAGHH,WCP_591,NULL,WCED,TRUE,129338788
b55382d7-a993-4f14-a551-c4b599080746,FACILITY,TWEE JONGE GEZELLEN VGK PS,WCEDL000211.WCEDL000211,TRUE,-33.234482,19.115039,"Twee Jonge Gezellen-Landgoed, Tulbagh,6820",NULL,NULL,CAPEWINELA,WITZENBERG,TULBAGHH,WCP_591,SCHP,NULL,NULL,NULL
152808e1-51c9-4148-afd5-ed0f9f29d29b,ENVELOPE,BRITSUM NGK PS,WCEDL000029,TRUE,-33.35349,19.562111,"P/A H De Kock, De Eiken, CERES,",NULL,NULL,CAPEWINELA,WITZENBERG,CERESS,WCP_703,NULL,WCED,TRUE,126338842
a21737af-6773-4782-af18-8808ab9d2f7b,FACILITY,BRITSUM NGK PS,WCEDL000029.WCEDL000029,TRUE,-33.35349,19.562111,"P/A H De Kock, De Eiken, CERES,",NULL,NULL,CAPEWINELA,WITZENBERG,CERESS,WCP_703,SCHP,NULL,NULL,NULL
9d02b7c5-798d-4ff3-b80d-dac4ebc26a48,ENVELOPE,LAASTEDRIF NGK PS,WCEDL000111,TRUE,-33.316872,19.655372,"Laastedrift, Ceres,6835",NULL,NULL,CAPEWINELA,WITZENBERG,CERESS,WCP_703,NULL,WCED,TRUE,126336890
dd410fbe-4e41-4818-92c4-8253e6dac904,FACILITY,LAASTEDRIF NGK PS,WCEDL000111.WCEDL000111,TRUE,-33.316872,19.655372,"Laastedrift, Ceres,6835",NULL,NULL,CAPEWINELA,WITZENBERG,CERESS,WCP_703,SCHP,NULL,NULL,NULL
2053c8ab-12d4-40d4-b0ab-397e8b94017c,ENVELOPE,MATJIESRIVIER NGK PS,WCEDL000127,TRUE,-33.267456,19.653933,"Matjiesrivier, Ceres,6835",NULL,NULL,CAPEWINELA,WITZENBERG,CERESS,WCP_703,NULL,WCED,TRUE,126336785
3555a0d1-f0d2-4961-bf7b-926ad0319b44,FACILITY,MATJIESRIVIER NGK PS,WCEDL000127.WCEDL000127,TRUE,-33.267456,19.653933,"Matjiesrivier, Ceres,6835",NULL,NULL,CAPEWINELA,WITZENBERG,CERESS,WCP_703,SCHP,NULL,NULL,NULL
6694357d-e5e3-4e59-9c3e-3381c305b67d,ENVELOPE,WANGANELLA NGK PS,WCEDL000223,TRUE,-33.367338,19.472919,"Wanganella Plaas, Ceres,6835",NULL,NULL,CAPEWINELA,WITZENBERG,CERESS,WCP_703,NULL,WCED,TRUE,126338664
c098a821-9df6-4812-bc4b-b4f8974380b7,FACILITY,WANGANELLA NGK PS,WCEDL000223.WCEDL000223,TRUE,-33.367338,19.472919,"Wanganella Plaas, Ceres,6835",NULL,NULL,CAPEWINELA,WITZENBERG,CERESS,WCP_703,SCHP,NULL,NULL,NULL
bf42f88f-d185-4d88-b7f2-7d676a7dde4c,ENVELOPE,WELGEMOED NGK PS,WCEDL000225,TRUE,-33.235182,19.540721,"Olckersia, Droëhoek, Warmbokkeveld, CERES,",NULL,NULL,CAPEWINELA,WITZENBERG,CERESS,WCP_703,NULL,WCED,TRUE,126336815
9a765ada-41d6-4e0f-9649-1d8d8bdd59de,FACILITY,WELGEMOED NGK PS,WCEDL000225.WCEDL000225,TRUE,-33.235182,19.540721,"Olckersia, Droëhoek, Warmbokkeveld, CERES,",NULL,NULL,CAPEWINELA,WITZENBERG,CERESS,WCP_703,SCHP,NULL,NULL,NULL
6a6f55c9-a8d1-48a3-b642-572f520f8d02,ENVELOPE,WELVAART NGK PS,WCEDL000229,TRUE,-33.385324,19.507219,"Welvaart, Warm Bokkeveld, CERES,6835",NULL,NULL,CAPEWINELA,WITZENBERG,CERESS,WCP_703,NULL,WCED,TRUE,126336874
e807f6c3-49a7-4706-a313-e4533dd52ce9,FACILITY,WELVAART NGK PS,WCEDL000229.WCEDL000229,TRUE,-33.385324,19.507219,"Welvaart, Warm Bokkeveld, CERES,6835",NULL,NULL,CAPEWINELA,WITZENBERG,CERESS,WCP_703,SCHP,NULL,NULL,NULL
400184c0-f789-4217-b9cf-9de15fe13406,ENVELOPE,SEEKOEGAT VGK PS,WCEDL000181,TRUE,-33.056596,22.510153,"Seekoegat, Prins Albert,6932",NULL,NULL,CENTRALKAR,PRINCEALBE,PRINCEALBT,WCP_1372,NULL,WCED,TRUE,142366781
45107367-e401-4eac-8af0-bff884546460,FACILITY,SEEKOEGAT VGK PS,WCEDL000181.WCEDL000181,TRUE,-33.056596,22.510153,"Seekoegat, Prins Albert,6932",NULL,NULL,CENTRALKAR,PRINCEALBE,PRINCEALBT,WCP_1372,SCHP,NULL,NULL,NULL
a86e9b4f-dc36-4136-9cc4-b54511d67d60,ENVELOPE,KLEINKARNMELKVLEI NGK PS,WCEDL000100,TRUE,-33.136028,18.804218,"Kleinkarnmelksvlei, Moorreesburg,",NULL,NULL,WESTCOAST,SWARTLAND,RIEBEEKKAL,WCP_373,NULL,WCED,TRUE,135476609
2d487c01-ab85-4276-95a3-2baebcabc1cc,FACILITY,KLEINKARNMELKVLEI NGK PS,WCEDL000100.WCEDL000100,TRUE,-33.136028,18.804218,"Kleinkarnmelksvlei, Moorreesburg,",NULL,NULL,WESTCOAST,SWARTLAND,RIEBEEKKAL,WCP_373,SCHP,NULL,NULL,NULL
4f159a3c-3b5a-4d12-905c-4d3399a966b4,ENVELOPE,BLOEMENDAL NGK PS,WCEDL000017,TRUE,-33.442338,18.621862,"DARLINGWEG, BLOEMENDAL, MALMESBURY,7300",NULL,NULL,WESTCOAST,SWARTLAND,RIVERLANDS,WCP_263,NULL,WCED,TRUE,132476099
5701c476-231d-4739-b63b-eb71329bcb61,FACILITY,BLOEMENDAL NGK PS,WCEDL000017.WCEDL000017,TRUE,-33.442338,18.621862,"DARLINGWEG, BLOEMENDAL, MALMESBURY,7300",NULL,NULL,WESTCOAST,SWARTLAND,RIVERLANDS,WCP_263,SCHP,NULL,NULL,NULL
0f1b677e-a111-4672-af3c-7a2807af64ec,ENVELOPE,KORANRUG PS,WCEDL000106,TRUE,-33.327766,18.423849,"Korhaansrug-Plaas, Darling,",NULL,NULL,WESTCOAST,SWARTLAND,DARLINGG,WCP_764,NULL,WCED,TRUE,132476676
58a93cb6-dcaa-4d76-b4f8-16e0ae8fb5d4,FACILITY,KORANRUG PS,WCEDL000106.WCEDL000106,TRUE,-33.327766,18.423849,"Korhaansrug-Plaas, Darling,",NULL,NULL,WESTCOAST,SWARTLAND,DARLINGG,WCP_764,SCHP,NULL,NULL,NULL
4a47c05d-971d-4345-98af-e267e038b065,ENVELOPE,MORNING STAR NGK PS,WCEDL000142,TRUE,-33.417157,18.474028,"Darlingweg, Darling,",NULL,NULL,WESTCOAST,SWARTLAND,DARLINGG,WCP_764,NULL,WCED,TRUE,132476870
38daad10-fbe8-41f9-9f96-9ea71962cdf1,FACILITY,MORNING STAR NGK PS,WCEDL000142.WCEDL000142,TRUE,-33.417157,18.474028,"Darlingweg, Darling,",NULL,NULL,WESTCOAST,SWARTLAND,DARLINGG,WCP_764,SCHP,NULL,NULL,NULL
3ceafdee-6986-43fa-b29f-490431ce4117,ENVELOPE,WELGEMEEND NGK PS,WCEDL000224,TRUE,-33.537351,18.765291,"Welgemeend, Malmesbury, JOUBERTSKLOOF,",NULL,NULL,CAPETOWN,CAPETOWN,ATLANTISS,WCP_510,NULL,WCED,TRUE,132328049
e81ad746-baf1-4f32-aee1-5e0460a97566,FACILITY,WELGEMEEND NGK PS,WCEDL000224.WCEDL000224,TRUE,-33.537351,18.765291,"Welgemeend, Malmesbury, JOUBERTSKLOOF,",NULL,NULL,CAPETOWN,CAPETOWN,ATLANTISS,WCP_510,SCHP,NULL,NULL,NULL
de57bcb1-8a0b-458e-af7f-11e81bb563c1,ENVELOPE,BERGHOF NGK PS,WCEDL000016,TRUE,-32.950742,19.047355,"BERGHOFF FARM, PORTERVILLE,6810",NULL,NULL,WESTCOAST,BERGRIVIER,PORTERVILE,WCP_1432,NULL,WCED,TRUE,133476064
653652e3-d351-499e-b3ca-dbebaf3b59f7,FACILITY,BERGHOF NGK PS,WCEDL000016.WCEDL000016,TRUE,-32.950742,19.047355,"BERGHOFF FARM, PORTERVILLE,6810",NULL,NULL,WESTCOAST,BERGRIVIER,PORTERVILE,WCP_1432,SCHP,NULL,NULL,NULL
68d9eb18-8750-4f29-a1ee-032015dff47e,ENVELOPE,MIDDELDEURVLEI NGK PS,WCEDL000134,TRUE,-32.79439,18.926518,"Middeldeurvlei, PIKETBERG,7320",NULL,NULL,WESTCOAST,BERGRIVIER,PORTERVILE,WCP_1432,NULL,WCED,TRUE,133476838
63873ffb-9fc4-4d32-ac41-b3d7359ae977,FACILITY,MIDDELDEURVLEI NGK PS,WCEDL000134.WCEDL000134,TRUE,-32.79439,18.926518,"Middeldeurvlei, PIKETBERG,7320",NULL,NULL,WESTCOAST,BERGRIVIER,PORTERVILE,WCP_1432,SCHP,NULL,NULL,NULL
cf34c343-2e3d-4e85-8a60-a142c85ef9aa,ENVELOPE,NUHOOP NGK PS,WCEDL000148,TRUE,-32.914627,18.934215,"Nuhoop Boerdery, Porterville,6810",NULL,NULL,WESTCOAST,BERGRIVIER,PORTERVILE,WCP_1432,NULL,WCED,TRUE,133476897
7df01908-d379-48c8-8414-d5a7f9856dd1,FACILITY,NUHOOP NGK PS,WCEDL000148.WCEDL000148,TRUE,-32.914627,18.934215,"Nuhoop Boerdery, Porterville,6810",NULL,NULL,WESTCOAST,BERGRIVIER,PORTERVILE,WCP_1432,SCHP,NULL,NULL,NULL
f9eabdc9-42dd-4104-b5d7-bf4e805215dc,ENVELOPE,KAROOKOP PS,WCEDL000095,TRUE,-32.686046,18.719924,"Karookop, Het Kruis,",NULL,NULL,WESTCOAST,BERGRIVIER,EENDEKUILL,WCP_666,NULL,WCED,TRUE,133476552
ef5e84e7-7523-49c7-943c-d7bb4a0c7db4,FACILITY,KAROOKOP PS,WCEDL000095.WCEDL000095,TRUE,-32.686046,18.719924,"Karookop, Het Kruis,",NULL,NULL,WESTCOAST,BERGRIVIER,EENDEKUILL,WCP_666,SCHP,NULL,NULL,NULL
5f264c08-07f3-4237-a757-0194ccd0cfb6,ENVELOPE,HEXRIVIER NGK PS,WCEDL000082,TRUE,-32.442681,18.972324,"Hexrivier, CITRUSDAL,7340",NULL,NULL,WESTCOAST,CEDERBERG,CITRUSDALL,WCP_16,NULL,WCED,TRUE,136476471
7e498938-1384-436c-8a2d-2b37ecfd4fdd,FACILITY,HEXRIVIER NGK PS,WCEDL000082.WCEDL000082,TRUE,-32.442681,18.972324,"Hexrivier, CITRUSDAL,7340",NULL,NULL,WESTCOAST,CEDERBERG,CITRUSDALL,WCP_16,SCHP,NULL,NULL,NULL
ea4a7635-8e27-4a42-9385-b7416c0d7bb0,ENVELOPE,KWEEKKRAAL NGK PS,WCEDL000109,TRUE,-32.447171,18.957361,"Kweekkraal Plaas, Citrusdal,7340",NULL,NULL,WESTCOAST,CEDERBERG,CITRUSDALL,WCP_16,NULL,WCED,TRUE,136476706
aac2ff0d-3a2e-4dc6-a374-0f0d55267717,FACILITY,KWEEKKRAAL NGK PS,WCEDL000109.WCEDL000109,TRUE,-32.447171,18.957361,"Kweekkraal Plaas, Citrusdal,7340",NULL,NULL,WESTCOAST,CEDERBERG,CITRUSDALL,WCP_16,SCHP,NULL,NULL,NULL
08c0b8b8-e435-4b75-ba12-ff8f2e59c2e0,ENVELOPE,NOORDHOEK NGK PS,WCEDL000147,TRUE,-32.719916,19.06546,"Noordhoek, Citrusdal,7340",NULL,NULL,WESTCOAST,CEDERBERG,CITRUSDALL,WCP_16,NULL,WCED,TRUE,136476889
3479d200-923d-4531-bed8-f466cc75120d,FACILITY,NOORDHOEK NGK PS,WCEDL000147.WCEDL000147,TRUE,-32.719916,19.06546,"Noordhoek, Citrusdal,7340",NULL,NULL,WESTCOAST,CEDERBERG,CITRUSDALL,WCP_16,SCHP,NULL,NULL,NULL
c57abfa7-32fd-4c2f-b75a-282a0353308c,ENVELOPE,PAARDEKOP NGK PS,WCEDL000160,TRUE,-32.602951,18.939032,"Nuwedam Farm, Citrusdal,",NULL,NULL,WESTCOAST,CEDERBERG,CITRUSDALL,WCP_16,NULL,WCED,TRUE,136476943
d6ca730b-c525-4004-81be-e0e0436da0b7,FACILITY,PAARDEKOP NGK PS,WCEDL000160.WCEDL000160,TRUE,-32.602951,18.939032,"Nuwedam Farm, Citrusdal,",NULL,NULL,WESTCOAST,CEDERBERG,CITRUSDALL,WCP_16,SCHP,NULL,NULL,NULL
6ed76890-0187-4a03-8022-30947b7d6bcb,ENVELOPE,ELANDSFONTEIN NGK PS,WCEDL000056,TRUE,-32.310314,18.82322,"Elandsfontein, Clanwilliam,",NULL,NULL,WESTCOAST,CEDERBERG,CLANWILLIM,WCP_818,NULL,WCED,TRUE,136476358
9f74e948-63c7-4cca-9a14-52c9cbcdfeca,FACILITY,ELANDSFONTEIN NGK PS,WCEDL000056.WCEDL000056,TRUE,-32.310314,18.82322,"Elandsfontein, Clanwilliam,",NULL,NULL,WESTCOAST,CEDERBERG,CLANWILLIM,WCP_818,SCHP,NULL,NULL,NULL
baff243b-b572-41b0-b3b4-ccfe2fe342b7,ENVELOPE,BREEVLEI PS,WCEDL000027,TRUE,-32.515819,18.713734,"Breevlei, Paleisheuwel,",NULL,NULL,WESTCOAST,CEDERBERG,GRAAFFWATR,WCP_918,NULL,WCED,TRUE,136476145
57a329e6-5062-44f8-b355-9e0c174bfa0c,FACILITY,BREEVLEI PS,WCEDL000027.WCEDL000027,TRUE,-32.515819,18.713734,"Breevlei, Paleisheuwel,",NULL,NULL,WESTCOAST,CEDERBERG,GRAAFFWATR,WCP_918,SCHP,NULL,NULL,NULL
dce8e018-2bbc-4003-a70d-a99b57cc29c3,ENVELOPE,LANGVLEI SSKV PS,WCEDL000113,TRUE,-32.339985,18.684006,"Bo-Langvlei, Sandberg,8120",NULL,NULL,WESTCOAST,CEDERBERG,GRAAFFWATR,WCP_918,NULL,WCED,TRUE,136476722
e84c72be-3675-431c-9495-ce2302f16da2,FACILITY,LANGVLEI SSKV PS,WCEDL000113.WCEDL000113,TRUE,-32.339985,18.684006,"Bo-Langvlei, Sandberg,8120",NULL,NULL,WESTCOAST,CEDERBERG,GRAAFFWATR,WCP_918,SCHP,NULL,NULL,NULL
14e5c5f3-388c-4944-82ec-99c2b091a60d,ENVELOPE,SANDBERG NGK PS,WCEDL000177,TRUE,-32.28586,18.573691,"Sandberg- Plaas, Sandberg,8120",NULL,NULL,WESTCOAST,CEDERBERG,GRAAFFWATR,WCP_918,NULL,WCED,TRUE,136477141
6e81f9b3-0ab1-4db1-865f-5305d2896020,FACILITY,SANDBERG NGK PS,WCEDL000177.WCEDL000177,TRUE,-32.28586,18.573691,"Sandberg- Plaas, Sandberg,8120",NULL,NULL,WESTCOAST,CEDERBERG,GRAAFFWATR,WCP_918,SCHP,NULL,NULL,NULL
4cf50101-b4f7-4dc5-8c87-f2260b327c94,ENVELOPE,ELIZABETHFONTEIN MOR PS,WCEDL000059,TRUE,-32.052268,19.056282,"Elizabethfontein, Clanwilliam,8135",NULL,NULL,WESTCOAST,CEDERBERG,CLANWILLIM,WCP_1479,NULL,WCED,TRUE,136476331
dc144590-2e46-4982-a5c5-79fc8197bf3e,FACILITY,ELIZABETHFONTEIN MOR PS,WCEDL000059.WCEDL000059,TRUE,-32.052268,19.056282,"Elizabethfontein, Clanwilliam,8135",NULL,NULL,WESTCOAST,CEDERBERG,CLANWILLIM,WCP_1479,SCHP,NULL,NULL,NULL
a90d4140-5644-4f5b-b5a0-ce881ec2c79a,ENVELOPE,WUPPERTHAL MOR PS,WCEDL000236,TRUE,-32.27883,19.2145,"Die Werf, Wupperthal,8138",NULL,NULL,WESTCOAST,CEDERBERG,CLANWILLIM,WCP_1479,NULL,WCED,TRUE,136477621
324096b2-5dd2-4b4d-a383-43668d6217e9,FACILITY,WUPPERTHAL MOR PS,WCEDL000236.WCEDL000236,TRUE,-32.27883,19.2145,"Die Werf, Wupperthal,8138",NULL,NULL,WESTCOAST,CEDERBERG,CLANWILLIM,WCP_1479,SCHP,NULL,NULL,NULL
76fce282-1351-417d-a4c0-d35b62fc4cf6,ENVELOPE,BOOYSENDAL NGK PS,WCEDL000023,TRUE,-31.606783,18.416338,"LIEBENDAL, VREDENDAL,8160",NULL,NULL,WESTCOAST,MATZIKAMA,KOEKENAAPP,WCP_1261,NULL,WCED,TRUE,138347418
90d5dc69-b468-4157-bf65-be52c7626c22,FACILITY,BOOYSENDAL NGK PS,WCEDL000023.WCEDL000023,TRUE,-31.606783,18.416338,"LIEBENDAL, VREDENDAL,8160",NULL,NULL,WESTCOAST,MATZIKAMA,KOEKENAAPP,WCP_1261,SCHP,NULL,NULL,NULL
c59ecc63-4c80-4989-960a-84b97126adef,ENVELOPE,KAPEL NGK PS,WCEDL000094,TRUE,-31.756576,18.580346,BEACH DRIVE_PACALTSDORP_GEORGE LOCAL MUNICIPALITY LOCAL,NULL,NULL,WESTCOAST,MATZIKAMA,VREDENDALL,WCP_49,NULL,WCED,TRUE,138347213
f10eb153-5520-4484-a3c2-39973bebe962,FACILITY,KAPEL NGK PS,WCEDL000094.WCEDL000094,TRUE,-31.756576,18.580346,BEACH DRIVE_PACALTSDORP_GEORGE LOCAL MUNICIPALITY LOCAL,NULL,NULL,WESTCOAST,MATZIKAMA,VREDENDALL,WCP_49,SCHP,NULL,NULL,NULL
8d17f8dd-793f-4754-a79a-e2f0ed015567,ENVELOPE,NUWEFONTEIN PS,WCEDL000149,TRUE,-30.600695,18.688575,"Nuwefontein Prim., Hoofweg, KLIPRAND,8203",NULL,NULL,WESTCOAST,MATZIKAMA,NUWERUSS,WCP_142,NULL,WCED,TRUE,137340391
6760139d-c926-4e83-a35c-f0aa2e86bb2a,FACILITY,NUWEFONTEIN PS,WCEDL000149.WCEDL000149,TRUE,-30.600695,18.688575,"Nuwefontein Prim., Hoofweg, KLIPRAND,8203",NULL,NULL,WESTCOAST,MATZIKAMA,NUWERUSS,WCP_142,SCHP,NULL,NULL,NULL
a564e9ec-134f-42f9-9e15-bd663a1c82d9,ENVELOPE,ST. BONIFACE (RK) PS,WCEDL000187,TRUE,-30.877163,18.044287,"Molsvleistraat 702, Rietpoort,8202",NULL,NULL,WESTCOAST,MATZIKAMA,NUWERUSS,WCP_142,NULL,WCED,TRUE,137346942
4ffcaac4-030f-4205-99b9-cfafdcae2cf2,FACILITY,ST. BONIFACE (RK) PS,WCEDL000187.WCEDL000187,TRUE,-30.877163,18.044287,"Molsvleistraat 702, Rietpoort,8202",NULL,NULL,WESTCOAST,MATZIKAMA,NUWERUSS,WCP_142,SCHP,NULL,NULL,NULL
50224d1b-bbc3-4107-a7f4-c78c6ea41afc,ENVELOPE,ARIESKRAAL SSKV PS,WCEDL000007,TRUE,-34.207939,19.014867,"VILJOENSHOOPWEG, ELGIN,7160",NULL,NULL,OVERBERG,THEEWATERS,ELGINN,NULL,NULL,WCED,TRUE,114336394
d0b8966a-bd4c-4940-9573-4721f906409f,FACILITY,ARIESKRAAL SSKV PS,WCEDL000007.WCEDL000007,TRUE,-34.207939,19.014867,"VILJOENSHOOPWEG, ELGIN,7160",NULL,NULL,OVERBERG,THEEWATERS,ELGINN,NULL,SCHP,NULL,NULL,NULL
23be3c4c-037a-4e75-b894-f377255141b1,ENVELOPE,DE MEUL NGK PS,WCEDL000043,TRUE,-32.890072,19.351364,"De Meul Plaas, Koue Bokkeveld,6836",NULL,NULL,CAPEWINELA,WITZENBERG,OPDIEBERGG,NULL,NULL,WCED,TRUE,126336998
85472c45-848e-4521-bb1b-a46e2753f99e,FACILITY,DE MEUL NGK PS,WCEDL000043.WCEDL000043,TRUE,-32.890072,19.351364,"De Meul Plaas, Koue Bokkeveld,6836",NULL,NULL,CAPEWINELA,WITZENBERG,OPDIEBERGG,NULL,SCHP,NULL,NULL,NULL
0f3710ea-aa05-4df6-a8aa-93ef479aa804,ENVELOPE,DENNEGEUR NGK PS,WCEDL000046,TRUE,-34.191903,19.010452,"Dennegeur Boerdery, Appletiser Pad, GRABOUW,",NULL,NULL,OVERBERG,THEEWATERS,GRABOUWW,NULL,NULL,WCED,TRUE,114336742
89029f50-1416-442f-8a9e-9df56b4b064d,FACILITY,DENNEGEUR NGK PS,WCEDL000046.WCEDL000046,TRUE,-34.191903,19.010452,"Dennegeur Boerdery, Appletiser Pad, GRABOUW,",NULL,NULL,OVERBERG,THEEWATERS,GRABOUWW,NULL,SCHP,NULL,NULL,NULL
c81279ab-fe3c-4de9-ae5d-9f935ee4f5b6,ENVELOPE,KROMLIN PS,WCEDL000107,TRUE,-32.954442,19.246565,"Kromfontein, Koue Bokkeveld,6836",NULL,NULL,CAPEWINELA,WITZENBERG,OPDIEBERGG,NULL,NULL,WCED,TRUE,126337013
aae13f5e-cf71-48d5-b1f2-0879fe3a0c3d,FACILITY,KROMLIN PS,WCEDL000107.WCEDL000107,TRUE,-32.954442,19.246565,"Kromfontein, Koue Bokkeveld,6836",NULL,NULL,CAPEWINELA,WITZENBERG,OPDIEBERGG,NULL,SCHP,NULL,NULL,NULL
2a49467a-a292-48c1-9b7d-94c4dbbde7f2,ENVELOPE,MAXONIA NGK PS,WCEDL000129,TRUE,-34.232389,19.065549,"Bergendal Plaas, Hoogland Pad, GRABOUW,7160",NULL,NULL,OVERBERG,THEEWATERS,GRABOUWW,NULL,NULL,WCED,TRUE,114336750
78ce14c5-6a17-4304-8c93-735c4b47d4de,FACILITY,MAXONIA NGK PS,WCEDL000129.WCEDL000129,TRUE,-34.232389,19.065549,"Bergendal Plaas, Hoogland Pad, GRABOUW,7160",NULL,NULL,OVERBERG,THEEWATERS,GRABOUWW,NULL,SCHP,NULL,NULL,NULL
be5a4aba-08be-4127-91da-125201291983,ENVELOPE,TANDFONTEIN NGK PS,WCEDL000207,TRUE,-32.767215,19.250128,"Tandfontein, Koue Bokkeveld,6836",NULL,NULL,CAPEWINELA,WITZENBERG,OPDIEBERGG,NULL,NULL,WCED,TRUE,126338893
815d3e5c-b78a-4a31-b861-e4df68ca56de,FACILITY,TANDFONTEIN NGK PS,WCEDL000207.WCEDL000207,TRUE,-32.767215,19.250128,"Tandfontein, Koue Bokkeveld,6836",NULL,NULL,CAPEWINELA,WITZENBERG,OPDIEBERGG,NULL,SCHP,NULL,NULL,NULL
