asset_id,asset_type_code,name,func_loc_path,active,latitude,longitude,address,barcode,serial_number,district_code,municipality_code,town_code,suburb_code,facility_type_code,responsible_dept_code,is_owned,EMIS
5b11ba97-26b9-4c79-81f4-45b929505b30,ENVELOPE,Beaufort West Regional Library,2830,TRUE,-32.350032,22.581502,BEACH DRIVE_PACALTSDORP_GEORGE LOCAL MUNICIPALITY LOCAL,NULL,NULL,CENTRALKAR,BEAUFORTWE,BEAUFORTWT,WCP_157,NULL,DTPW,TRUE,NULL
61f85794-07cb-40e9-b948-bac0fc486a7d,ENVELOPE,Beaufort West Hospital and Pathology Lab,14441,TRUE,-32.353224,22.607905,99 VOORTREKKER STREET_BEAUFORT WEST_BEAUFORT WEST LOCAL MUNICIPALITY,NULL,NULL,CENTRALKAR,BEAUFORTWE,BEAUFORTWT,WCP_157,NULL,WCDOH,TRUE,NULL
894fd14c-baed-4bf6-9735-19a75b354544,ENVELOPE,Beaufort West Forensic Pathology Services,30104,TRUE,-32.349806,22.584748,39 Bird street_Beaufort West_Cape Town,NULL,NULL,CENTRALKAR,BEAUFORTWE,BEAUFORTWT,WCP_157,NULL,WCDOH,TRUE,NULL
c328477a-1b45-45c3-b196-e6d05d22bf61,ENVELOPE,Education District Office Central Karoo - Beaufort West,2951,TRUE,-32.350182,22.585349,51 BIRD STREET_BEAUFORT WEST_BEAUFORT WEST LOCAL MUNICIPALITY,NULL,NULL,CENTRALKAR,BEAUFORTWE,BEAUFORTWT,WCP_157,NULL,WCED,TRUE,139007182
e6bbc162-106d-4911-a299-2b04512aefd0,ENVELOPE,Beaufort West Dept. Agriculture District Office,20212,TRUE,-32.349491,22.588842,CHURCH STREET_BEAUFORT WEST_BEAUFORT WEST LOCAL MUNICIPALITY,NULL,NULL,CENTRALKAR,BEAUFORTWE,BEAUFORTWT,WCP_157,NULL,DoA,TRUE,NULL
edd9a621-9666-4bf1-9501-e3719a0abb88,ENVELOPE,Beaufort West Department Of Social Development,2829,TRUE,-32.35282,22.583929,BEACH DRIVE_PACALTSDORP_GEORGE LOCAL MUNICIPALITY LOCAL,NULL,NULL,CENTRALKAR,BEAUFORTWE,BEAUFORTWT,WCP_157,NULL,DTPW,TRUE,NULL
0ec0acb6-4cc9-41a3-8c2d-b604e6424fe3,ENVELOPE,Old Dan De Villiers Girls Hostel (New Shared Office Building),20210,TRUE,-32.357915,22.589276,GRIMBEEK STREET_BEAUFORT WEST_BEAUFORT WEST LOCAL MUNICIPALITY,NULL,NULL,CENTRALKAR,BEAUFORTWE,BEAUFORTWT,WCP_131,NULL,WCED,TRUE,101310227
7fdd8b37-0437-455f-882f-b5e17ef93892,ENVELOPE,Beaufort Wes Voorbereidingskool,2765,TRUE,-32.350988,22.586179,7 DE VILLIERS STREET_BEAUFORT WEST_BEAUFORT WEST LOCAL MUNICIPALITY,NULL,NULL,CENTRALKAR,BEAUFORTWE,BEAUFORTWT,WCP_131,NULL,WCED,TRUE,139208200
8513c909-518d-4716-a0cb-009ac69e8a91,ENVELOPE,Sentraal High School,3624,TRUE,-32.354183,22.591371,101 A HATTINGH STREET_SENTRAAL HIGH SCHOOL_BEAUFORT WEST LOCAL MUNICIPALITY,NULL,NULL,CENTRALKAR,BEAUFORTWE,BEAUFORTWT,WCP_131,NULL,WCED,TRUE,139210225
ab3813f2-72a6-4f74-a4bb-00672b1f9b5a,ENVELOPE,Niko Brummer Primary School,1667,TRUE,-32.354052,22.591747,VOORTREKKERSTRAAT_HOSPITAALHEUWEL_BEAUFORT WEST LOCAL MUNICIPALITY,NULL,NULL,CENTRALKAR,BEAUFORTWE,BEAUFORTWT,WCP_131,NULL,WCED,TRUE,139209238
d2c772dc-d21d-4fba-a7e5-98a309a63deb,ENVELOPE,"HoÃ«rskool Sentraal, Die Olyfboord",30121,TRUE,-32.357281,22.592289,PLANTATION STREET_BEAUFORT WEST_BEAUFORT WEST LOCAL MUNICIPALITY,NULL,NULL,CENTRALKAR,BEAUFORTWE,BEAUFORTWT,WCP_131,NULL,WCED,TRUE,NULL
3fcb758e-2492-40b6-8b05-0d6453b6aa6c,ENVELOPE,Beaufort Wes Cdc,2795,TRUE,-32.363294,22.577618,1 VAN SCHALKWYK STREET_NEWLANDS_BEAUFORT WEST LOCAL MUNICIPALITY,NULL,NULL,CENTRALKAR,BEAUFORTWE,BEAUFORTWT,WCP_131,NULL,WCDOH,TRUE,NULL
677ca815-bb68-4ad3-9592-38c6d6664155,ENVELOPE,St. MatthewS Primary School,1513,TRUE,-32.362615,22.578543,15 BANTOM STREET_NEWLANDS_BEAUFORT WEST LOCAL MUNICIPALITY,NULL,NULL,CENTRALKAR,BEAUFORTWE,BEAUFORTWT,WCP_131,NULL,WCED,TRUE,139366919
266ba6b3-c6f3-4d99-95da-f20ab83ea418,ENVELOPE,Pacaltsdorp High School,1463,TRUE,-34.009457,22.451134,BEACH DRIVE_PACALTSDORP_GEORGE LOCAL MUNICIPALITY LOCAL,NULL,NULL,EDEN,GEORGE,PACALTSDOP,WCP_578,NULL,WCED,TRUE,118353345
896d0aa3-0fec-448e-8ba4-5b7f439ff434,ENVELOPE,Puttersvlei Repeater Station (annual lease),I1098,TRUE,-34.009457,22.451134,"Ptn 1 of Farm 190, Puttersvlei",NULL,NULL,CENTRALKAR,BEAUFORTWE,BEAUFORTWT,WCP_578,NULL,NULL,FALSE,NULL
d139d8ce-e2ca-43c7-921c-bd366cb8e06c,ENVELOPE,Pacaltsdorp Community Health Clinic,2808,TRUE,-34.015853,22.459501,MISSION STREET_PACALTSDORP_GEORGE LOCAL MUNICIPALITY LOCAL,NULL,NULL,EDEN,GEORGE,PACALTSDOP,WCP_578,NULL,WCDOH,TRUE,NULL
d52ba89c-8192-4b5c-a902-4b077a155ca2,ENVELOPE,Kambro Security Complex,I1080,TRUE,-34.009457,22.451134,46 Kambro Security Complex (1 unit),NULL,NULL,CENTRALKAR,BEAUFORTWE,BEAUFORTWT,WCP_578,NULL,NULL,FALSE,NULL
ebd94405-14b1-4f8f-94ad-dbeb0d0b5a27,ENVELOPE,Milnerton Mall,I1151,TRUE,-34.009457,22.451134,"Erf 26626, c/o Koeberg Rd & Loxton Rd",NULL,NULL,CAPETOWN,CAPETOWN,MILNERTONN,WCP_578,NULL,NULL,FALSE,NULL
f0c21b91-82e9-4315-a6f0-157ea32f4b6f,ENVELOPE,Diagnostic Centre,I1135,TRUE,-34.009457,22.451134,1 Peter Jacobs Avenue,NULL,NULL,CENTRALKAR,BEAUFORTWE,BEAUFORTWT,WCP_578,NULL,NULL,FALSE,NULL
319599a1-502e-4d0c-8f05-6b2007b7926b,ENVELOPE,New Dawn Park Primary School,8663,TRUE,-34.017054,22.476489,PROTEA AVENUE_PACALTSDORP_GEORGE LOCAL MUNICIPALITY LOCAL,NULL,NULL,EDEN,GEORGE,PACALTSDOP,WCP_341,NULL,WCED,TRUE,118008008
98599e97-6bbb-4160-b2ef-94a3f8564056,ENVELOPE,Pacaltsdorp Primary School,1461,TRUE,-34.018819,22.463482,86 ALOE STREET_PACALTSDORP_GEORGE LOCAL MUNICIPALITY LOCAL,NULL,NULL,EDEN,GEORGE,PACALTSDOP,WCP_649,NULL,WCED,TRUE,118350206
3604a937-a2eb-4731-ae58-4957ad1033bf,ENVELOPE,"1551, Langebaan",NK127,TRUE,-33.093734,18.033361,UNKNOWN_LANGEBAAN_Langebaan Munucipality,NULL,NULL,WESTCOAST,SALDANHABA,LANGEBAANN,WCP_253,NULL,DTPW,TRUE,NULL
67d60369-7404-406a-b927-00c30bbdc14b,ENVELOPE,Langebaan Erf 760,6561,TRUE,-33.083491,18.0334,LEENTJIE STRAAT_LANGEBAAN_SALDANHA BAY LOCAL MUNICIPALITY,NULL,NULL,WESTCOAST,SALDANHABA,LANGEBAANN,WCP_253,NULL,DTPW,TRUE,NULL
9d009dea-4bf1-498e-9dbc-b3c322e63124,ENVELOPE,Langebaan Clinic,2941,TRUE,-33.082757,18.03562,ANTONIO SIENI STREET_LANGEBAAN_SALDANHA BAY LOCAL MUNICIPALITY,NULL,NULL,WESTCOAST,SALDANHABA,LANGEBAANN,WCP_253,NULL,WCDOH,TRUE,NULL
e8a4ed01-d991-4ae9-8f24-4b4e87d4a74c,ENVELOPE,"House,9 Panorama Street",20266,TRUE,-33.101199,18.034715,9 PANORAMA STREET_LANGEBAAN_MATZIKAMA LOCAL MUNICIPALITY,NULL,NULL,WESTCOAST,SALDANHABA,LANGEBAANN,WCP_253,NULL,DTPW,TRUE,NULL
5d45cc40-b662-4e8f-8d06-3b1141a2c633,ENVELOPE,Langebaan Primary School,1661,TRUE,-33.079513,18.037632,43 AANDBLOM STREET_LANGEBAAN_SALDANHA BAY LOCAL MUNICIPALITY,NULL,NULL,WESTCOAST,SALDANHABA,LANGEBAANN,WCP_253,NULL,WCED,TRUE,131470252
6760b50b-43b0-4b95-9000-64712733abee,ENVELOPE,Milnerton High School,2056,TRUE,-33.870059,18.497009,PIENAAR ROAD_MILNERTON_CITY OF CAPE TOWN METROPOLITAN,NULL,NULL,CAPETOWN,CAPETOWN,MILNERTONN,WCP_37,NULL,WCED,TRUE,103310260
ab78ddf8-5f6c-4e50-8482-32313261f96a,ENVELOPE,22 Lobelia Street,9283,TRUE,-33.86694,18.503064,22 LOBELIA STREET_MILNERTON_CITY OF CAPE TOWN METROPOLITAN,NULL,NULL,CAPETOWN,CAPETOWN,MILNERTONN,WCP_37,NULL,DoA,TRUE,NULL
c183984e-d7f7-49c4-a272-9c480481d5d7,ENVELOPE,Seamount Primary School,2064,TRUE,-33.868467,18.502565,IXIA STREET_MILNERTON_CITY OF CAPE TOWN METROPOLITAN,NULL,NULL,CAPETOWN,CAPETOWN,MILNERTONN,WCP_37,NULL,WCED,TRUE,103309339
a33c04a5-1a5d-4e36-9900-1e20ec35a1ab,ENVELOPE,Woodbridge Primary School,5967,TRUE,-33.889476,18.488895,7 UNION ROAD_MILNERTON_CITY OF CAPE TOWN METROPOLITAN,NULL,NULL,CAPETOWN,CAPETOWN,MILNERTONN,WCP_64,NULL,WCED,TRUE,103309384
c4d24f25-e91a-4109-88f1-59665b822da9,ENVELOPE,Milnerton Primary School,2058,TRUE,-33.873961,18.499111,12 ZASTRON ROAD_MILNERTON_CITY OF CAPE TOWN METROPOLITAN,NULL,NULL,CAPETOWN,CAPETOWN,MILNERTONN,WCP_64,NULL,WCED,TRUE,103309297
02343b95-60c1-41bc-a12e-523262b7ccf0,ENVELOPE,"838, Zeekoevlei",NK153,TRUE,-34.053035,18.503587,Fishermans Walk_ZEEKOEVLEI_CITY OF CAPE TOWN METROPOLITAN,NULL,NULL,CAPETOWN,CAPETOWN,CAPETOWNN,WCP_38,NULL,DTPW,TRUE,NULL
1e748caa-d89c-4487-9441-2dc888a6058e,ENVELOPE,Erf 307,16581,TRUE,-34.051735,18.506927,FIRST STREET_GRASSY PARK_CITY OF CAPE TOWN METROPOLITAN,NULL,NULL,CAPETOWN,CAPETOWN,CAPETOWNN,WCP_38,NULL,DTPW,TRUE,NULL
22d61d40-6c0a-44dd-9473-6b17dceb1ef8,ENVELOPE,"57, Zeekoevlei",NK146,TRUE,-34.058726,18.503136,BEACH DRIVE_PACALTSDORP_GEORGE LOCAL MUNICIPALITY LOCAL,NULL,NULL,CAPETOWN,CAPETOWN,CAPETOWNN,WCP_38,NULL,DTPW,TRUE,NULL
67a4d19c-78f5-4c3a-aa18-ace811a0bd42,ENVELOPE,"858, Zeekoevlei",NK154,TRUE,-34.053297,18.504726,Fishermans Walk_ZEEKOEVLEI_CITY OF CAPE TOWN METROPOLITAN,NULL,NULL,CAPETOWN,CAPETOWN,CAPETOWNN,WCP_38,NULL,DTPW,TRUE,NULL
725e07d1-0723-4802-80c2-83f3e6241c75,ENVELOPE,"Erf 271, Zeekoevlei",16521,TRUE,-34.051447,18.505875,FISHERMANS WALK ROAD_GRASSY PARK_CITY OF CAPE TOWN METROPOLITAN,NULL,NULL,CAPETOWN,CAPETOWN,CAPETOWNN,WCP_38,NULL,DTPW,TRUE,NULL
748378f8-d4e4-408f-b642-c4bce173e80e,ENVELOPE,"310, Zeekoevlei",NK152,TRUE,-34.053311,18.505743,Fishermans Walk_ZEEKOEVLEI_CITY OF CAPE TOWN METROPOLITAN,NULL,NULL,CAPETOWN,CAPETOWN,CAPETOWNN,WCP_38,NULL,DTPW,TRUE,NULL
83f71f62-7746-4f21-9c7b-bb39d3ea9072,ENVELOPE,"872, Zeekoevlei",NK155,TRUE,-34.048912,18.50984,BEACH DRIVE_PACALTSDORP_GEORGE LOCAL MUNICIPALITY LOCAL,NULL,NULL,CAPETOWN,CAPETOWN,CAPETOWNN,WCP_38,NULL,DTPW,TRUE,NULL
8ed07f94-d3d3-4f6b-9852-6205e02d640b,ENVELOPE,"60, Zeekoevlei",NK149,TRUE,-34.058,18.502,BEACH DRIVE_PACALTSDORP_GEORGE LOCAL MUNICIPALITY LOCAL,NULL,NULL,CAPETOWN,CAPETOWN,CAPETOWNN,WCP_38,NULL,DTPW,TRUE,NULL
9b973d23-ec39-441b-b117-f53cfd85f043,ENVELOPE,"269, Yzerfontein",NK145,TRUE,-34.052659,18.506624,SCHOOL ROAD_YZERFONTEIN_SWARTLAND LOCAL MUNICIPALITY,NULL,NULL,CAPETOWN,CAPETOWN,CAPETOWNN,WCP_38,NULL,DTPW,TRUE,NULL
c528f150-552b-4dbf-a9d1-c5de4f124740,ENVELOPE,"59, Zeekoevlei",NK148,TRUE,-34.057,18.501,BEACH DRIVE_PACALTSDORP_GEORGE LOCAL MUNICIPALITY LOCAL,NULL,NULL,CAPETOWN,CAPETOWN,CAPETOWNN,WCP_38,NULL,DTPW,TRUE,NULL
cf0a9dc3-c97a-4ebe-9741-9e5962a875f8,ENVELOPE,"272,, Zeekoevlei",NK150,TRUE,-34.051666,18.506936,146 First Road_ZEEKOEVLEI_CITY OF CAPE TOWN METROPOLITAN,NULL,NULL,CAPETOWN,CAPETOWN,CAPETOWNN,WCP_38,NULL,DTPW,TRUE,NULL
dccd9eb4-cc4e-4efd-b405-04974364a8f4,ENVELOPE,"58, Zeekoevlei",NK147,TRUE,-34.057,18.502,BEACH DRIVE_PACALTSDORP_GEORGE LOCAL MUNICIPALITY LOCAL,NULL,NULL,CAPETOWN,CAPETOWN,CAPETOWNN,WCP_38,NULL,DTPW,TRUE,NULL
e11327a7-6b4e-42fe-9603-2550a9478c6c,ENVELOPE,Erf 308 Zeekoevlei,NK151,TRUE,-34.052659,18.506624,FISHERMANS WALK_ZEEKOEVLEI_CITY OF CAPE TOWN METROPOLITAN,NULL,NULL,CAPETOWN,CAPETOWN,CAPETOWNN,WCP_38,NULL,DTPW,TRUE,NULL
041de9a1-607d-46f9-8d17-fdb449b9e8da,ENVELOPE,Woodlands Community Centre,20500,TRUE,-34.037863,18.599507,BEACH DRIVE_PACALTSDORP_GEORGE LOCAL MUNICIPALITY LOCAL,NULL,NULL,CAPETOWN,CAPETOWN,MITCHELLN,WCP_1572,NULL,WCDOH,TRUE,NULL
11ef1c19-2225-4a6d-8379-bf438ce1ad20,ENVELOPE,Erf 1782 Weltevreden Valley,3028,TRUE,-34.027789,18.587617,WELDEVREDEN ROAD_WELTEVREDEN VALLEY_CITY OF CAPE TOWN METROPOLITAN,NULL,NULL,CAPETOWN,CAPETOWN,MITCHELLN,WCP_1572,NULL,DTPW,TRUE,NULL
48f0f701-8bfd-443d-a47d-2519573f8ac9,ENVELOPE,Woodville Primary School,2757,TRUE,-34.035652,18.59919,MITCHELL AVENUE_MITCHELLS PLAIN_CITY OF CAPE TOWN METROPOLITAN,NULL,NULL,CAPETOWN,CAPETOWN,MITCHELLN,WCP_1572,NULL,WCED,TRUE,106490474
69753d6d-cb44-42aa-8b0f-2f3d637fffe7,ENVELOPE,Highlands Primary School,1943,TRUE,-34.029382,18.597815,AJAX WAY_MITCHELLS PLAIN_CITY OF CAPE TOWN METROPOLITAN,NULL,NULL,CAPETOWN,CAPETOWN,MITCHELLN,WCP_1572,NULL,WCED,TRUE,106490164
902c7bc4-11ed-41c6-9a76-0da459f29cb8,ENVELOPE,Northwood Primary School,2751,TRUE,-34.03504,18.594862,MINERIA ROAD_MITCHELLS PLAIN_CITY OF CAPE TOWN METROPOLITAN,NULL,NULL,CAPETOWN,CAPETOWN,MITCHELLN,WCP_1572,NULL,WCED,TRUE,106490288
e38c377a-b82c-4086-9a25-5a9036a4bea3,ENVELOPE,Woodlands Secondary School,3806,TRUE,-34.032798,18.595335,MITCHELL AVENUE_WOODLANDS_CITY OF CAPE TOWN METROPOLITAN,NULL,NULL,CAPETOWN,CAPETOWN,MITCHELLN,WCP_1572,NULL,WCED,TRUE,106493457
e67f862f-51cb-482a-a204-0d77b0827392,ENVELOPE,Erf 126 Portion 0 Of Weltevreden Valley,8723,TRUE,-34.024076,18.58896,WASHINGTON DRIVE_WELTEVREDEN VALLEY_CITY OF CAPE TOWN METROPOLITAN,NULL,NULL,CAPETOWN,CAPETOWN,MITCHELLN,WCP_1572,NULL,DTPW,TRUE,NULL
fc612fe3-1e8c-4e58-ae60-3e286ab21d01,ENVELOPE,Erf 266 Roads Trustees - Weltevreden Valley,17761,TRUE,-34.024239,18.577572,VANGUARD DRIVE_WELTEVREDEN VALLEY_CITY OF CAPE TOWN METROPOLITAN,NULL,NULL,CAPETOWN,CAPETOWN,MITCHELLN,WCP_1572,NULL,RNM,TRUE,NULL
fe0931fc-fc51-4348-90f1-87ba775487af,ENVELOPE,N7 Road Reserve,20604,TRUE,-33.809472,18.54605,N7_PLATTEKLOOF_CITY OF CAPE TOWN METROPOLITAN,NULL,NULL,CAPETOWN,CAPETOWN,MILNERTONN,WCP_200,NULL,RNM,TRUE,NULL
